"stnm","stlon","stlat","Rhyp","Rrup","Repi","siteClass","AVS30","AVS20","Ts","PGA1","PGA2","PGA3","PGA4","PGA5","PGA1.1","PGA2.1","PGA3.1","PGA4.1","PGA5.1","sigma","valid","event.num","mag","eq.type","depth","resids","model"
"NGNH23",137.6105,35.6056,403.256809,403.256809,402.18524,"rock",524,461,0.106667,0.465842,0.410575,0.4714,0.230496,0.18262,-1,0.269819,-1,-1,-1,0.21,0,200401114926.07,5.7,"inter-plate",31.1,0.182319973177814,"1990FT"
"MIE015",136.0822,33.8783,134.808324,77.809,128.139016,"hard-soil",534,455,0.247562,83.32552,75.843241,86.552959,53.322787,45.305476,-1,119.11614,-1,-1,-1,0.21,0,200405235716.81,7,"intra-plate",43.5,-0.196053728128343,"1990FT"
"WKY014",135.6397,33.7053,158.8279,106.744,153.14976,"hard-soil",346,288,0.260163,58.864308,48.206918,59.193765,29.044867,16.98806,-1,75.990166,-1,-1,-1,0.21,0,200405235716.81,7,"intra-plate",43.5,-0.197648026487048,"1990FT"
"MIE007",136.3404,34.651,187.773505,135.089,183.433282,"hard-soil",464,393,0.271497,383.969321,296.241288,396.614582,195.314781,86.662487,-1,50.901578,-1,-1,-1,0.21,0,200405235716.81,7,"intra-plate",43.5,0.764914341163931,"1990FT"
"WKY002",135.4305,34.2755,206.665575,149.681,202.629745,"hard-soil",355,297,0.337416,43.925795,38.798285,44.718842,22.734637,21.065923,-1,41.876836,-1,-1,-1,0.21,0,200405235716.81,7,"intra-plate",43.5,-0.0331613322656856,"1990FT"
"SZO022",137.8136,35.0916,228.876507,204.476,225.409931,"hard-soil",379,318,0.319364,20.177016,19.625916,25.229849,17.638719,11.443716,-1,21.107616,-1,-1,-1,0.21,0,200405235716.81,7,"intra-plate",43.5,-0.0316092489725157,"1990FT"
"SIG008",136.2946,35.0701,231.423627,180.42,228.10033,"hard-soil",427,360,0.294541,42.489591,40.618543,43.236747,24.229575,23.511897,-1,28.287829,-1,-1,-1,0.21,0,200405235716.81,7,"intra-plate",43.5,0.157124723037948,"1990FT"
"MIE001",136.4943,35.1718,236.569299,188.394,233.347081,"hard-soil",567,484,0.234581,26.686141,26.463888,29.597116,19.505487,17.540445,-1,25.639984,-1,-1,-1,0.21,0,200405235716.81,7,"intra-plate",43.5,0.013735900026798,"1990FT"
"TKY012",139.789,33.1161,251.183677,230.018,247.114195,"rock",597,511,0.132446,14.389558,12.072827,14.389612,8.440145,5.036406,-1,8.767467,-1,-1,-1,0.21,0,200405235716.81,7,"intra-plate",43.5,0.138934837457709,"1990FT"
"SIG006",135.921,35.2001,257.797668,204.077,254.894794,"hard-soil",325,271,0.25986,10.083925,9.864816,10.656619,7.501838,10.342253,-1,21.208547,-1,-1,-1,0.21,0,200405235716.81,7,"intra-plate",43.5,-0.332421926831546,"1990FT"
"GIF019",137.4039,35.4495,260.426879,226.591,257.548994,"rock",594,508,0.102256,14.295127,14.101723,16.981711,11.60439,10.013089,-1,9.122506,-1,-1,-1,0.21,0,200405235716.81,7,"intra-plate",43.5,0.189158021904417,"1990FT"
"GIF017",136.5679,35.487,268.576391,222.303,265.854308,"hard-soil",495,421,0.258947,20.27092,19.88335,23.474337,16.287328,15.227487,-1,17.100976,-1,-1,-1,0.21,0,200405235716.81,7,"intra-plate",43.5,0.0654686598353607,"1990FT"
"SIG002",136.0243,35.4215,276.008601,223.995,273.372002,"hard-soil",371,311,0.203226,28.785083,27.319163,28.95852,19.243633,14.160041,-1,16.766971,-1,-1,-1,0.21,0,200405235716.81,7,"intra-plate",43.5,0.212012776186331,"1990FT"
"TKY008",139.3909,34.7852,279.826643,256.234,276.79862,"hard-soil",445,377,0.282535,9.323371,9.016001,10.992589,7.681468,4.894075,-1,11.599733,-1,-1,-1,0.21,0,200405235716.81,7,"intra-plate",43.5,-0.109434041643598,"1990FT"
"SZO010",138.9349,35.3091,294.756833,273.183,292.085193,"rock",423,357,0.13986,12.110291,10.093623,12.522317,6.733537,6.442117,-1,5.386026,-1,-1,-1,0.21,0,200405235716.81,7,"intra-plate",43.5,0.272778634111563,"1990FT"
"NGN021",137.9341,35.7304,299.10561,272.437,296.667084,"rock",562,480,0.121529,12.54843,12.19967,12.884363,8.821929,4.322796,-1,5.430591,-1,-1,-1,0.21,0,200405235716.81,7,"intra-plate",43.5,0.351500987673992,"1990FT"
"KYT006",135.1827,35.2759,300.413322,243.869,297.996107,"rock",453,384,0.141538,10.04772,9.980535,10.2649,6.479505,5.890962,-1,7.479971,-1,-1,-1,0.21,0,200405235716.81,7,"intra-plate",43.5,0.125253907881618,"1990FT"
"NGN018",137.5295,35.8132,301.27165,268.244,298.900327,"hard-soil",467,396,0.272044,19.040986,18.736024,21.109473,14.660786,7.540303,-1,10.144744,-1,-1,-1,0.21,0,200405235716.81,7,"intra-plate",43.5,0.266436341841918,"1990FT"
"YMN003",138.813,35.4648,303.043609,282.222,300.503185,"rock",432,365,0.154083,8.595426,8.49763,9.378428,6.349125,4.909238,-1,4.876428,-1,-1,-1,0.21,0,200405235716.81,7,"intra-plate",43.5,0.241196001027286,"1990FT"
"NGN020",137.9532,35.8282,309.930128,282.987,307.607776,"rock",591,506,0.094737,6.193367,5.920123,6.760864,4.197355,4.925046,-1,4.835759,-1,-1,-1,0.21,0,200405235716.81,7,"intra-plate",43.5,0.087866081208444,"1990FT"
"GIF009",136.8311,35.9219,312.345173,269.97,310.130964,"hard-soil",455,386,0.275521,10.175074,9.62561,10.26229,5.66425,4.069011,-1,9.952499,-1,-1,-1,0.21,0,200405235716.81,7,"intra-plate",43.5,-0.0145038811932143,"1990FT"
"KOC004",133.8771,33.6975,312.578985,261.709,309.839046,"hard-soil",392,330,0.315013,7.313405,6.836627,7.344804,4.838343,4.849066,-1,10.910055,-1,-1,-1,0.21,0,200405235716.81,7,"intra-plate",43.5,-0.202985054124329,"1990FT"
"KNG012",139.2048,35.3794,315.435805,293.499,312.949632,"rock",475,403,0.115622,5.472243,5.308278,5.640834,3.792592,2.32342,-1,4.312513,-1,-1,-1,0.21,0,200405235716.81,7,"intra-plate",43.5,0.0902232419815223,"1990FT"
"GIF006",136.9528,36.0333,323.756135,282.875,321.648131,"rock",596,510,0.118814,9.263954,9.260336,10.76828,7.244694,4.049071,-1,4.84169,-1,-1,-1,0.21,0,200405235716.81,7,"intra-plate",43.5,0.281629765490412,"1990FT"
"KOC005",133.6921,33.5934,327.541618,276.947,324.907922,"rock",426,359,0.143506,4.941404,4.657404,5.60607,3.617122,2.298076,-1,5.167134,-1,-1,-1,0.21,0,200405235716.81,7,"intra-plate",43.5,-0.0451058124759817,"1990FT"
"KNG005",139.5462,35.3192,330.482965,307.915,328.076859,"rock",440,372,0.169749,3.335893,3.169667,3.438369,2.157631,1.933033,-1,3.691736,-1,-1,-1,0.21,0,200405235716.81,7,"intra-plate",43.5,-0.0662169982496174,"1990FT"
"KNG008",139.3265,35.5751,339.149395,317.483,336.890219,"hard-soil",330,275,0.35939,5.97867,5.862675,5.996128,3.875314,3.190928,-1,5.944065,-1,-1,-1,0.21,0,200405235716.81,7,"intra-plate",43.5,-0.00598773036510747,"1990FT"
"ISK013",136.6247,36.1805,342.749609,298.455,340.818065,"rock",474,402,0.154006,8.099537,7.467103,8.159669,4.459893,4.296631,-1,4.087294,-1,-1,-1,0.21,0,200405235716.81,7,"intra-plate",43.5,0.261716264219375,"1990FT"
"NGN014",138.4844,36.0956,352.444956,330.632,350.455538,"hard-soil",314,261,0.294689,12.711928,12.496927,13.094287,9.235837,3.479925,-1,5.171353,-1,-1,-1,0.21,0,200405235716.81,7,"intra-plate",43.5,0.383199048912179,"1990FT"
"FKI001",136.1571,36.2161,354.997859,306.613,353.166232,"hard-soil",418,353,0.296557,7.491486,6.658391,8.073202,5.580922,5.028446,-1,6.676172,-1,-1,-1,0.21,0,200405235716.81,7,"intra-plate",43.5,-0.00115822239688756,"1990FT"
"NGN012",137.9785,36.2564,356.243835,327.59,354.343294,"rock",547,467,0.078689,3.781242,3.633053,3.939364,2.388605,2.154538,-1,2.994421,-1,-1,-1,0.21,0,200405235716.81,7,"intra-plate",43.5,0.0839588736766468,"1990FT"
"NGN011",138.2669,36.2564,362.86289,337.763,360.984409,"rock",577,493,0.070748,2.683035,2.528509,2.705348,1.819472,1.169342,-1,2.690333,-1,-1,-1,0.21,0,200405235716.81,7,"intra-plate",43.5,-0.0269415349766384,"1990FT"
"NGN010",138.4357,36.3281,375.02543,351.562,373.219978,"hard-soil",361,302,0.224946,4.021762,3.579617,4.170688,2.439919,1.693156,-1,4.153944,-1,-1,-1,0.21,0,200405235716.81,7,"intra-plate",43.5,-0.0646240755159705,"1990FT"
"NGN007",138.1191,36.5339,388.878815,360.763,387.203396,"hard-soil",341,285,0.352395,4.311443,3.854706,4.312897,2.666769,1.931341,-1,3.776068,-1,-1,-1,0.21,0,200405235716.81,7,"intra-plate",43.5,0.0089514532959476,"1990FT"
"NGN004",138.1938,36.6486,402.757794,375.018,401.165596,"hard-soil",485,412,0.264113,2.090728,1.919341,2.092859,1.374984,1.597507,-1,3.260768,-1,-1,-1,0.21,0,200405235716.81,7,"intra-plate",43.5,-0.230167759754704,"1990FT"
"HRS010",133.0501,34.5887,413.094412,360.682,411.277185,"hard-soil",333,277,0.269634,6.21375,5.706536,6.59948,4.36371,2.388868,-1,3.779231,-1,-1,-1,0.21,0,200405235716.81,7,"intra-plate",43.5,0.178969123034551,"1990FT"
"TTR009",133.3113,35.1708,420.618097,365.263,418.956575,"hard-soil",442,374,0.28192,4.430365,4.426576,4.739881,2.926884,1.154844,-1,3.60468,-1,-1,-1,0.21,0,200405235716.81,7,"intra-plate",43.5,0.0892012081003932,"1990FT"
"NGN001",138.366,36.8514,428.320264,401.593,426.863959,"hard-soil",326,271,0.365116,2.206404,2.044796,2.408975,1.519687,1.125779,-1,2.488199,-1,-1,-1,0.21,0,200405235716.81,7,"intra-plate",43.5,-0.0852351242873677,"1990FT"
"ISK003",136.9083,37.3919,473.579629,432.669,472.425728,"rock",561,479,0.139653,1.660499,1.601919,1.771041,1.169053,0.825369,-1,1.021719,-1,-1,-1,0.21,0,200405235716.81,7,"intra-plate",43.5,0.195309082838778,"1990FT"
"MYZ017",131.2277,31.4637,588.684428,547.486,586.958646,"hard-soil",342,285,0.348966,1.366322,1.212012,1.405977,0.98797,0.507957,-1,0.596199,-1,-1,-1,0.21,0,200405235716.81,7,"intra-plate",43.5,0.308115676495919,"1990FT"
"WKYH05",135.8619,33.6072,136.656584,85.5336,129.908188,"rock",577,427,0.125984,16.972944,15.907829,17.704574,11.822725,11.232343,-1,58.943942,-1,-1,-1,0.21,0,200405235716.81,7,"intra-plate",43.5,-0.568828262917882,"1990FT"
"MIEH05",136.1689,34.0637,142.837257,85.397,136.682454,"rock",590,488,0.066667,233.764686,230.01745,281.07087,196.912348,69.5859,-1,59.072315,-1,-1,-1,0.21,0,200405235716.81,7,"intra-plate",43.5,0.590376793632871,"1990FT"
"MIEH04",136.5866,34.3532,149.948845,99.2399,144.243872,"rock",490,421,0.157085,45.174692,39.868327,48.021165,32.851233,24.96827,-1,47.659965,-1,-1,-1,0.21,0,200405235716.81,7,"intra-plate",43.5,-0.0775257073915017,"1990FT"
"WKYH04",135.5454,33.5559,161.261724,112.085,155.589441,"rock",549,397,0.132231,24.649692,20.974482,27.505376,17.39393,11.943998,-1,39.412335,-1,-1,-1,0.21,0,200405235716.81,7,"intra-plate",43.5,-0.273940921580273,"1990FT"
"NARH03",136.0022,34.2925,170.905415,113.568,165.949462,"rock",492,360,0.165517,67.736312,55.026554,67.765459,37.518749,32.383851,-1,38.576307,-1,-1,-1,0.21,0,200405235716.81,7,"intra-plate",43.5,0.154251666997902,"1990FT"
"NARH01",135.6489,33.9666,171.36599,115.461,166.270213,"hard-soil",338,256,0.244275,134.365206,118.291575,137.986105,84.730648,38.323763,-1,66.946458,-1,-1,-1,0.21,0,200405235716.81,7,"intra-plate",43.5,0.247226209946151,"1990FT"
"WKYH07",135.4396,33.6894,174.788371,123.84,169.657982,"hard-soil",316,285,0.370827,109.274488,96.333674,112.512318,67.792524,35.013695,-1,59.450547,-1,-1,-1,0.21,0,200405235716.81,7,"intra-plate",43.5,0.209622268959849,"1990FT"
"MIEH03",136.3692,34.547,176.521857,123.559,171.835341,"hard-soil",434,335,0.223571,96.618351,93.839589,106.111328,75.030397,53.224984,-1,59.685085,-1,-1,-1,0.21,0,200405235716.81,7,"intra-plate",43.5,0.196520280283077,"1990FT"
"NARH05",136.0294,34.4237,180.501624,123.78,175.886848,"hard-soil",396,297,0.231594,187.489163,173.418856,205.823909,139.679672,40.391186,-1,59.500534,-1,-1,-1,0.21,0,200405235716.81,7,"intra-plate",43.5,0.464575453553997,"1990FT"
"SZOH25",137.5604,34.6913,181.202512,155.03,176.604248,"soft-soil",332,298,1.302507,35.07068,30.10817,35.070722,17.557401,22.061921,-1,50.724274,-1,-1,-1,0.21,0,200405235716.81,7,"intra-plate",43.5,-0.226531480304957,"1990FT"
"NARH04",135.8369,34.3061,181.811478,124.221,177.185338,"rock",583,472,0.189675,96.869402,85.439725,98.226646,53.470866,37.940654,-1,33.15942,-1,-1,-1,0.21,0,200405235716.81,7,"intra-plate",43.5,0.411052916260247,"1990FT"
"AICH21",136.9385,34.7401,183.152251,141.509,178.690298,"medium-soil",355,303,0.411761,81.380638,80.669826,81.620308,49.080024,35.617372,-1,37.951141,-1,-1,-1,0.21,0,200405235716.81,7,"intra-plate",43.5,0.327486282717379,"1990FT"
"AICH22",137.4393,34.7853,189.1291,159.397,184.789382,"medium-soil",404,388,0.566581,21.27169,19.901512,21.2836,14.3915,14.920775,-1,30.002563,-1,-1,-1,0.21,0,200405235716.81,7,"intra-plate",43.5,-0.178272283552785,"1990FT"
"WKYH02",135.5369,34.1373,190.036462,133.346,185.555823,"hard-soil",368,268,0.284594,84.354901,80.615732,84.630496,55.268294,37.652558,-1,52.125727,-1,-1,-1,0.21,0,200405235716.81,7,"intra-plate",43.5,0.18936767663148,"1990FT"
"WKYH10",135.2172,33.8248,198.75484,146.734,194.348188,"rock",465,341,0.186667,54.927513,49.820289,54.949628,31.765323,15.095865,-1,24.41369,-1,-1,-1,0.21,0,200405235716.81,7,"intra-plate",43.5,0.309772816794548,"1990FT"
"AICH05",136.8763,34.8886,199.717833,156.903,195.714218,"soft-soil",301,258,1.248768,90.100831,82.358547,95.534393,65.961442,54.165988,-1,49.505633,-1,-1,-1,0.21,0,200405235716.81,7,"intra-plate",43.5,0.221054058073017,"1990FT"
"MIEH02",136.2835,34.7662,201.210144,148.525,197.228446,"rock",423,335,0.182759,36.853298,35.462575,39.879259,26.823864,20.810772,-1,23.842651,-1,-1,-1,0.21,0,200405235716.81,7,"intra-plate",43.5,0.172415725512786,"1990FT"
"AICH08",137.2993,34.9189,202.060515,168.211,198.082793,"hard-soil",448,351,0.211538,23.696482,23.179172,24.311804,16.709009,11.932097,-1,32.967576,-1,-1,-1,0.21,0,200405235716.81,7,"intra-plate",43.5,-0.152989097881601,"1990FT"
"MIEH10",136.4245,34.8224,202.166737,151.534,198.219531,"rock",421,357,0.199608,62.684535,62.585014,70.509624,49.855769,36.443659,-1,22.917912,-1,-1,-1,0.21,0,200405235716.81,7,"intra-plate",43.5,0.436295306224344,"1990FT"
"WKYH03",135.3244,34.1314,205.47596,149.637,201.355919,"rock",546,427,0.133333,20.150904,19.689116,20.522235,12.491578,9.576042,-1,23.495936,-1,-1,-1,0.21,0,200405235716.81,7,"intra-plate",43.5,-0.076766532887576,"1990FT"
"WKYH01",135.2122,33.9804,206.176058,152.209,202.007406,"rock",462,351,0.196189,41.018761,32.021917,41.098813,21.215855,14.585964,-1,22.716236,-1,-1,-1,0.21,0,200405235716.81,7,"intra-plate",43.5,0.149110955568551,"1990FT"
"AICH18",137.2377,34.9635,206.550023,171.171,202.687255,"rock",499,387,0.16,36.993543,33.650072,39.906796,26.637343,24.235977,-1,17.807452,-1,-1,-1,0.21,0,200405235716.81,7,"intra-plate",43.5,0.276384215430136,"1990FT"
"AICH19",137.4114,34.9512,206.552693,175.039,202.669516,"rock",586,445,0.13982,29.591641,29.452259,33.751508,23.684042,22.603581,-1,16.962668,-1,-1,-1,0.21,0,200405235716.81,7,"intra-plate",43.5,0.239624448974358,"1990FT"
"WKYH08",135.4483,34.3228,208.613007,151.434,204.636652,"hard-soil",343,294,0.324561,55.266133,39.282979,56.532398,27.060358,11.472255,-1,40.923873,-1,-1,-1,0.21,0,200405235716.81,7,"intra-plate",43.5,-0.0177723134272794,"1990FT"
"OSKH03",135.6608,34.5248,209.867225,152.455,205.992321,"hard-soil",391,303,0.219355,17.702909,17.440905,20.672035,14.511759,12.637692,-1,40.380461,-1,-1,-1,0.21,0,200405235716.81,7,"intra-plate",43.5,-0.364602256212132,"1990FT"
"AICH10",137.6243,35.0002,215.045062,187.854,211.323968,"rock",504,382,0.180952,30.825026,27.114929,31.360227,18.660967,9.178058,-1,14.472988,-1,-1,-1,0.21,0,200405235716.81,7,"intra-plate",43.5,0.272650269559155,"1990FT"
"MIEH01",136.4563,34.9849,217.976653,168.548,214.392718,"hard-soil",342,280,0.232804,28.157225,27.598675,34.219568,24.183592,15.852574,-1,32.827073,-1,-1,-1,0.21,0,200405235716.81,7,"intra-plate",43.5,-0.0753439286490825,"1990FT"
"SIGH03",136.0316,34.853,219.663952,165.112,216.082934,"hard-soil",392,347,0.366038,64.349591,57.541884,66.314569,42.104986,37.587846,-1,34.292475,-1,-1,-1,0.21,0,200405235716.81,7,"intra-plate",43.5,0.224785246484257,"1990FT"
"SZOH32",137.8409,35.0086,220.949483,197.429,217.316802,"rock",579,484,0.076667,12.428555,12.159544,12.920333,8.92863,7.337218,-1,12.881711,-1,-1,-1,0.21,0,200405235716.81,7,"intra-plate",43.5,-0.0250562629842055,"1990FT"
"SZOH31",138.0767,34.9398,221.409649,200.256,217.735734,"hard-soil",397,319,0.280009,12.338315,11.855532,14.116472,9.913724,6.064676,-1,22.20297,-1,-1,-1,0.21,0,200405235716.81,7,"intra-plate",43.5,-0.272490025029869,"1990FT"
"SIGH04",136.261,34.9638,221.727196,169.846,218.211173,"hard-soil",482,451,0.291429,26.47873,24.224466,26.480552,14.586014,8.032304,-1,32.292279,-1,-1,-1,0.21,0,200405235716.81,7,"intra-plate",43.5,-0.124844483745984,"1990FT"
"OSKH01",135.2836,34.3977,225.269806,168.263,221.639486,"soft-soil",500,500,4.4,47.563319,47.393783,50.697275,33.187778,14.362389,-1,42.798815,-1,-1,-1,0.21,0,200405235716.81,7,"intra-plate",43.5,0.0442896311554029,"1990FT"
"OSKH04",135.7052,34.763,227.305409,170.629,223.833556,"rock",511,401,0.142857,11.287923,10.172301,11.415822,7.827612,7.296256,-1,17.929625,-1,-1,-1,0.21,0,200405235716.81,7,"intra-plate",43.5,-0.24615200380582,"1990FT"
"AICH16",137.535,35.1543,229.991909,199.874,226.590077,"medium-soil",363,347,0.433704,44.037153,37.186536,44.511008,28.029455,20.567243,-1,18.136026,-1,-1,-1,0.21,0,200405235716.81,7,"intra-plate",43.5,0.31184359511778,"1990FT"
"AICH14",137.0474,35.1842,230.484672,190.964,227.139434,"soft-soil",394,372,0.937912,36.652116,33.880005,38.260841,22.923186,18.32466,-1,32.27819,-1,-1,-1,0.21,0,200405235716.81,7,"intra-plate",43.5,0.021034292088647,"1990FT"
"WKYH09",135.0714,34.2868,233.819505,177.908,230.294025,"hard-soil",348,287,0.2,16.688921,15.791771,16.750537,9.580172,7.175394,-1,29.185245,-1,-1,-1,0.21,0,200405235716.81,7,"intra-plate",43.5,-0.266732505842992,"1990FT"
"AICH07",137.4039,35.2194,235.433993,202.441,232.149012,"hard-soil",428,314,0.238478,22.890692,21.866689,23.594018,13.733529,6.75852,-1,21.628078,-1,-1,-1,0.21,0,200405235716.81,7,"intra-plate",43.5,0.00476510106267214,"1990FT"
"AICH17",137.7268,35.184,236.597909,210.05,233.291306,"hard-soil",314,235,0.339649,38.733304,37.910468,45.767734,32.128303,19.79617,-1,19.752333,-1,-1,-1,0.21,0,200405235716.81,7,"intra-plate",43.5,0.283140747115231,"1990FT"
"OSKH02",135.3896,34.6628,237.522245,180.148,234.184649,"soft-soil",500,500,4.8,20.955338,19.378993,21.083345,13.655311,13.573341,-1,36.871985,-1,-1,-1,0.21,0,200405235716.81,7,"intra-plate",43.5,-0.27936531259335,"1990FT"
"SZOH33",138.3526,35.0146,239.670304,218.875,236.292811,"rock",519,405,0.145641,9.547602,9.306794,9.890872,6.36035,5.158188,-1,9.981601,-1,-1,-1,0.21,0,200405235716.81,7,"intra-plate",43.5,-0.0304001044005285,"1990FT"
"SZOH39",138.7724,34.7988,241.512408,218.713,238.043469,"hard-soil",376,285,0.222222,21.090904,19.53613,21.99553,12.690601,9.673668,-1,17.834357,-1,-1,-1,0.21,0,200405235716.81,7,"intra-plate",43.5,0.0395810806512995,"1990FT"
"SZOH43",138.4924,34.9739,242.186872,220.782,238.818767,"hard-soil",323,273,0.37098,5.895835,5.667547,6.568705,4.643813,2.642792,-1,17.407528,-1,-1,-1,0.21,0,200405235716.81,7,"intra-plate",43.5,-0.487341972067128,"1990FT"
"AICH11",137.057,35.3059,243.714036,204.296,240.601948,"hard-soil",382,296,0.242857,13.389596,13.361135,16.28219,11.491352,8.728187,-1,21.153082,-1,-1,-1,0.21,0,200405235716.81,7,"intra-plate",43.5,-0.199530300845018,"1990FT"
"SZOH30",137.9181,35.2233,245.334577,221.658,242.1503,"rock",505,387,0.168889,14.973302,14.709515,17.072083,11.837877,5.610762,-1,9.661815,-1,-1,-1,0.21,0,200405235716.81,7,"intra-plate",43.5,0.182539635910121,"1990FT"
"SIGH01",136.3599,35.2383,246.896392,197.346,243.847179,"rock",562,444,0.16,22.030514,18.860063,22.127858,12.446224,8.710009,-1,12.894629,-1,-1,-1,0.21,0,200405235716.81,7,"intra-plate",43.5,0.165134287840921,"1990FT"
"NGNH14",137.6261,35.3095,248.081971,218.787,244.987752,"rock",476,371,0.180952,68.212127,64.800278,74.228713,51.5582,21.533774,-1,9.991902,-1,-1,-1,0.21,0,200405235716.81,7,"intra-plate",43.5,0.811928703191867,"1990FT"
"GIFH29",136.4732,35.2953,250.0802,202.076,247.08491,"medium-soil",456,415,0.417043,27.592453,24.072577,28.340199,17.897944,11.631552,-1,17.662578,-1,-1,-1,0.21,0,200405235716.81,7,"intra-plate",43.5,0.134468491784809,"1990FT"
"SZOH40",138.97,34.7832,252.085849,228.889,248.745718,"rock",492,407,0.14,19.275807,18.037121,21.473171,14.768651,18.349682,-1,8.882716,-1,-1,-1,0.21,0,200405235716.81,7,"intra-plate",43.5,0.307621441725581,"1990FT"
