"stnm","stlon","stlat","Rhyp","Rrup","Repi","siteClass","AVS30","AVS20","Ts","PGA1","PGA2","PGA3","PGA4","PGA5","PGA1.1","PGA2.1","PGA3.1","PGA4.1","PGA5.1","sigma","valid","event.num","mag","eq.type","depth","resids","model"
"NGNH36",137.8482,36.6984,401.8052,370.175,400.235305,"rock",488,426,0.141176,1.162725,1.134415,1.211456,0.829513,0.610882,-1,1.921656,-1,-1,-1,0.21,0,200405235716.81,7,"intra-plate",43.5,-0.228903685838409,"1990FT"
"ISKH08",136.7906,36.738,402.177287,360.011,400.662254,"rock",427,373,0.14767,2.050377,1.637117,2.059841,1.080875,0.779788,-1,2.133948,-1,-1,-1,0.21,0,200405235716.81,7,"intra-plate",43.5,-0.115104114051489,"1990FT"
"HRSH03",133.1375,34.5183,402.828955,350.573,400.943646,"hard-soil",486,370,0.216216,16.158571,14.179568,16.499472,10.184181,6.371722,-1,4.196885,-1,-1,-1,0.21,0,200405235716.81,7,"intra-plate",43.5,0.528735930519156,"1990FT"
"NGNH28",138.0964,36.7075,407.055824,378.048,405.498656,"rock",586,499,0.102381,2.660096,2.432922,2.785812,1.867134,1.71802,-1,1.772602,-1,-1,-1,0.21,0,200405235716.81,7,"intra-plate",43.5,0.137516950603506,"1990FT"
"HRSH01",133.0236,34.3736,407.196114,355.345,405.301996,"rock",402,324,0.177778,8.202713,7.857747,8.252796,5.555595,3.087514,-1,2.239594,-1,-1,-1,0.21,0,200405235716.81,7,"intra-plate",43.5,0.545128746168929,"1990FT"
"TYMH01",136.9276,36.8866,417.757449,376.871,416.328689,"hard-soil",382,301,0.226667,1.406087,1.190793,1.472398,0.987328,0.690304,-1,3.199453,-1,-1,-1,0.21,0,200405235716.81,7,"intra-plate",43.5,-0.429239461751186,"1990FT"
"TTRH02",133.3909,35.2313,418.051936,362.401,416.390544,"medium-soil",310,253,0.472549,7.454365,7.169813,7.867215,5.448673,2.861897,-1,3.018741,-1,-1,-1,0.21,0,200405235716.81,7,"intra-plate",43.5,0.375681975429693,"1990FT"
"HRSH02",132.948,34.5482,420.162034,368.004,418.371033,"hard-soil",390,294,0.243137,4.265845,4.081799,4.725539,3.298622,2.345559,-1,3.504335,-1,-1,-1,0.21,0,200405235716.81,7,"intra-plate",43.5,0.0662459987011802,"1990FT"
"NIGH17",138.0966,36.8569,423.154267,393.652,421.691504,"medium-soil",383,314,0.47238,1.732036,1.635881,1.760229,1.057157,0.823386,-1,2.192484,-1,-1,-1,0.21,0,200405235716.81,7,"intra-plate",43.5,-0.127184724410172,"1990FT"
"HRSH09",132.9524,34.7016,426.064467,373.31,424.333439,"rock",495,409,0.12,1.925836,1.782557,2.127061,1.502896,1.268733,-1,1.860776,-1,-1,-1,0.21,0,200405235716.81,7,"intra-plate",43.5,-0.0186506699781411,"1990FT"
"NIGH16",137.848,36.9378,427.876769,395.65,426.458242,"rock",525,466,0.114286,0.456409,0.448742,0.522216,0.361635,0.401973,-1,1.481732,-1,-1,-1,0.21,0,200405235716.81,7,"intra-plate",43.5,-0.518772940937088,"1990FT"
"HRSH18",132.7923,34.4572,430.178526,378.266,428.416128,"hard-soil",402,315,0.253485,6.453182,5.586652,6.45337,3.919936,3.547937,-1,3.154097,-1,-1,-1,0.21,0,200405235716.81,7,"intra-plate",43.5,0.248276574081104,"1990FT"
"NIGH18",138.2594,36.9425,435.633788,407.49,434.226585,"hard-soil",311,260,0.334118,1.883468,1.81331,1.924535,1.156206,1.035477,-1,2.344491,-1,-1,-1,0.21,0,200405235716.81,7,"intra-plate",43.5,-0.111576513319898,"1990FT"
"NGNH29",138.4408,36.9102,436.383064,410.177,434.964409,"rock",464,392,0.15,0.977272,0.945075,1.055462,0.691223,0.632331,-1,1.279584,-1,-1,-1,0.21,0,200405235716.81,7,"intra-plate",43.5,-0.131602526042513,"1990FT"
"ISKH06",136.8206,37.0533,436.678303,394.948,435.353471,"soft-soil",500,461,1.416667,3.378732,2.77644,3.49379,2.049984,1.76034,-1,3.457194,-1,-1,-1,0.21,0,200405235716.81,7,"intra-plate",43.5,-0.0952354579763837,"1990FT"
"HRSH07",132.6411,34.2883,437.906219,385.997,436.14444,"hard-soil",461,479,0.345149,4.72643,4.592313,5.102402,3.562004,4.920459,-1,2.91473,-1,-1,-1,0.21,0,200405235716.81,7,"intra-plate",43.5,0.197433149785723,"1990FT"
"HRSH15",132.5053,34.1161,445.318034,393.513,443.554214,"rock",578,443,0.114286,3.849811,3.582341,3.916712,2.7517,1.677209,-1,1.514192,-1,-1,-1,0.21,0,200405235716.81,7,"intra-plate",43.5,0.37398597627757,"1990FT"
"HRSH16",132.6689,34.6629,448.464775,396.233,446.825093,"hard-soil",455,331,0.227778,3.481313,3.382571,3.62554,2.517787,1.906304,-1,2.626858,-1,-1,-1,0.21,0,200405235716.81,7,"intra-plate",43.5,0.109810324411108,"1990FT"
"NIGH13",138.3966,37.0544,450.651502,423.456,449.31113,"hard-soil",461,520,0.33572,1.29306,1.24779,1.501165,1.052615,0.951017,-1,1.997436,-1,-1,-1,0.21,0,200405235716.81,7,"intra-plate",43.5,-0.204331372147271,"1990FT"
"ISKH04",136.7176,37.1902,452.461147,409.993,451.216368,"medium-soil",443,440,0.430545,1.416983,1.30658,1.46566,1.023998,0.81884,-1,1.858835,-1,-1,-1,0.21,0,200405235716.81,7,"intra-plate",43.5,-0.153104835114404,"1990FT"
"TCGH15",139.8637,36.5595,455.390249,434.895,453.907263,"hard-soil",423,337,0.251034,1.403965,1.338358,1.415476,0.987314,0.98698,-1,1.78216,-1,-1,-1,0.21,0,200405235716.81,7,"intra-plate",43.5,-0.124374392590697,"1990FT"
"SMNH12",132.8558,35.1634,456.031335,401.466,454.517924,"rock",590,447,0.133333,2.864644,2.582034,3.084291,1.809574,1.066445,-1,1.397043,-1,-1,-1,0.21,0,200405235716.81,7,"intra-plate",43.5,0.266752183121857,"1990FT"
"HRSH14",132.4063,34.209,456.510672,404.617,454.814713,"rock",550,475,0.101447,2.328224,2.317736,2.367461,1.529166,1.409587,-1,1.353299,-1,-1,-1,0.21,0,200405235716.81,7,"intra-plate",43.5,0.233670205551731,"1990FT"
"NIGH14",138.8521,37.0303,460.456011,437.74,459.123746,"hard-soil",437,367,0.217857,0.691444,0.616527,0.73871,0.462883,0.388709,-1,1.732482,-1,-1,-1,0.21,0,200405235716.81,7,"intra-plate",43.5,-0.448716630398393,"1990FT"
"SMNH15",133.0226,35.5232,463.562281,407.77,462.142181,"hard-soil",386,307,0.276,2.140143,2.03203,2.19658,1.544047,0.773289,-1,2.337888,-1,-1,-1,0.21,0,200405235716.81,7,"intra-plate",43.5,-0.0608935864088826,"1990FT"
"HRSH13",132.3907,34.4122,463.718335,411.736,462.092388,"hard-soil",399,289,0.243357,8.22205,8.159355,9.002954,5.970562,5.704283,-1,2.246429,-1,-1,-1,0.21,0,200405235716.81,7,"intra-plate",43.5,0.560163132015624,"1990FT"
"TCGH11",139.7694,36.7084,464.585704,444.5,463.166969,"hard-soil",328,256,0.3,1.518166,1.423692,1.532952,0.959849,0.605864,-1,1.620159,-1,-1,-1,0.21,0,200405235716.81,7,"intra-plate",43.5,-0.0561415929900339,"1990FT"
"SMNH03",132.7223,35.2243,469.876493,415.327,468.426311,"rock",434,361,0.188462,3.323799,3.305009,3.660701,2.502573,1.405561,-1,1.215058,-1,-1,-1,0.21,0,200405235716.81,7,"intra-plate",43.5,0.434575637275094,"1990FT"
"NIGH11",138.744,37.1728,472.103099,447.729,470.837215,"soft-soil",375,363,0.789231,1.800926,1.61276,1.892055,1.323546,1.102708,-1,2.038513,-1,-1,-1,0.21,0,200405235716.81,7,"intra-plate",43.5,-0.101743741939339,"1990FT"
"TCGH12",139.9842,36.6959,473.883829,453.457,472.483783,"medium-soil",343,305,0.523077,2.351383,1.944051,2.361382,1.277439,0.97318,-1,1.205734,-1,-1,-1,0.21,0,200405235716.81,7,"intra-plate",43.5,0.207456146392016,"1990FT"
"IBRH15",140.3013,36.5566,478.190542,457.146,476.764654,"rock",450,343,0.164912,0.558743,0.526248,0.62365,0.401609,0.268845,-1,0.801851,-1,-1,-1,0.21,0,200405235716.81,7,"intra-plate",43.5,-0.18290321683971,"1990FT"
"SMNH08",132.4208,34.8801,478.339679,425.663,476.857904,"rock",533,395,0.193237,1.367407,1.259385,1.371872,0.94807,0.969962,-1,1.095632,-1,-1,-1,0.21,0,200405235716.81,7,"intra-plate",43.5,0.0604938081426624,"1990FT"
"YMGH03",132.126,34.1891,481.058488,429.173,479.457618,"rock",521,421,0.123077,1.936966,1.919297,2.429116,1.703448,1.612111,-1,1.057927,-1,-1,-1,0.21,0,200405235716.81,7,"intra-plate",43.5,0.258686483303033,"1990FT"
"TCGH09",139.8364,36.8625,482.191522,462.268,480.854437,"rock",468,378,0.133333,0.994464,0.890639,1.011293,0.543015,0.682228,-1,0.762447,-1,-1,-1,0.21,0,200405235716.81,7,"intra-plate",43.5,0.0674920484960671,"1990FT"
"TCGH13",140.1781,36.7342,487.249548,466.638,485.890087,"rock",573,456,0.106667,1.259963,1.240562,1.59241,1.125958,0.323165,-1,0.730423,-1,-1,-1,0.21,0,200405235716.81,7,"intra-plate",43.5,0.230044033969343,"1990FT"
"TCGH10",140.0225,36.8578,490.641075,470.436,489.320625,"hard-soil",371,306,0.277333,1.726649,1.439489,1.727251,1.057751,0.894956,-1,1.254983,-1,-1,-1,0.21,0,200405235716.81,7,"intra-plate",43.5,0.0595705076180568,"1990FT"
"SMNH09",132.0122,34.5725,501.966497,449.917,500.511913,"rock",463,349,0.187013,1.487421,1.288527,1.649189,1.112999,0.677087,-1,0.861111,-1,-1,-1,0.21,0,200405235716.81,7,"intra-plate",43.5,0.175034386229035,"1990FT"
"SMNH07",132.0402,34.694,503.633372,451.608,502.205993,"medium-soil",318,312,0.449739,2.21964,1.897347,2.480071,1.567047,0.925894,-1,1.227934,-1,-1,-1,0.21,0,200405235716.81,7,"intra-plate",43.5,0.188971740326684,"1990FT"
"IBRH12",140.3181,36.8369,503.750685,483.145,502.452165,"hard-soil",485,400,0.2,0.626972,0.60676,0.637561,0.417206,0.420881,-1,1.108423,-1,-1,-1,0.21,0,200405235716.81,7,"intra-plate",43.5,-0.261688586239431,"1990FT"
"YMGH15",131.8149,33.9725,504.677107,453.087,503.122637,"rock",548,428,0.12,2.90099,2.541939,3.059229,1.678482,2.482117,-1,0.834581,-1,-1,-1,0.21,0,200405235716.81,7,"intra-plate",43.5,0.48369663101513,"1990FT"
"FKSH05",139.8725,37.2544,521.140801,501.8,519.977531,"rock",596,458,0.153333,0.577983,0.503644,0.578168,0.360817,0.295223,-1,0.518528,-1,-1,-1,0.21,0,200405235716.81,7,"intra-plate",43.5,-0.0126485483406898,"1990FT"
"NIGH09",139.1279,37.5386,521.623196,499.069,520.536064,"rock",462,399,0.153333,0.490464,0.486447,0.498742,0.345515,0.402422,-1,0.532428,-1,-1,-1,0.21,0,200405235716.81,7,"intra-plate",43.5,-0.0392253572628867,"1990FT"
"FKSH10",140.093,37.1616,522.281919,502.473,521.097481,"rock",487,401,0.106667,1.214195,1.041324,1.406137,0.947525,0.836241,-1,0.515161,-1,-1,-1,0.21,0,200405235716.81,7,"intra-plate",43.5,0.305642900389401,"1990FT"
"NIGH06",139.0676,37.6527,531.600945,508.081,530.557226,"hard-soil",336,264,0.248889,1.205661,1.168532,1.226776,0.853952,0.455784,-1,0.870213,-1,-1,-1,0.21,0,200405235716.81,7,"intra-plate",43.5,0.128015043078479,"1990FT"
"YMGH09",131.6681,34.6257,533.779412,481.688,532.43522,"hard-soil",303,246,0.386211,2.076546,2.053319,2.197508,1.24451,2.271678,-1,1.124282,-1,-1,-1,0.21,0,200405235716.81,7,"intra-plate",43.5,0.261581168262766,"1990FT"
"MYZH08",131.5309,32.2132,537.787236,492.807,536.021,"medium-soil",374,342,0.407453,1.628223,1.603631,1.708441,1.040509,0.558046,-1,0.820375,-1,-1,-1,0.21,0,200405235716.81,7,"intra-plate",43.5,0.29109202579792,"1990FT"
"FKSH08",140.2144,37.2822,539.288589,519.505,538.160584,"rock",562,473,0.115556,0.40283,0.37764,0.402888,0.259187,0.369547,-1,0.43708,-1,-1,-1,0.21,0,200405235716.81,7,"intra-plate",43.5,-0.0634829454437916,"1990FT"
"OITH04",131.3473,33.1306,542.129371,492.803,540.549871,"hard-soil",459,355,0.225,1.809532,1.769044,1.96206,1.336947,1.075225,-1,1.009007,-1,-1,-1,0.21,0,200405235716.81,7,"intra-plate",43.5,0.243844455727971,"1990FT"
"NIGH08",139.4648,37.6708,546.377274,525.818,545.354321,"soft-soil",326,304,1.343415,0.867806,0.84862,1.057655,0.729171,0.603744,-1,0.95295,-1,-1,-1,0.21,0,200405235716.81,7,"intra-plate",43.5,-0.0503568515287125,"1990FT"
"MYZH11",131.47,32.0208,548.381166,504.393,546.617382,"rock",509,448,0.121212,1.532639,1.347187,1.551374,0.991833,0.90734,-1,0.505679,-1,-1,-1,0.21,0,200405235716.81,7,"intra-plate",43.5,0.425552964862109,"1990FT"
"FKSH03",139.7533,37.6078,550.767236,531.518,549.733467,"soft-soil",349,302,0.887944,0.659969,0.620868,0.671214,0.427284,0.348579,-1,0.902239,-1,-1,-1,0.21,0,200405235716.81,7,"intra-plate",43.5,-0.162322319331473,"1990FT"
"YMGH14",131.3774,34.3979,553.132155,501.109,551.806304,"hard-soil",319,235,0.317949,3.183518,2.677018,3.310305,1.702419,1.567195,-1,0.930917,-1,-1,-1,0.21,0,200405235716.81,7,"intra-plate",43.5,0.458740330076655,"1990FT"
"MYZH01",131.2257,32.6536,557.592046,510.149,555.977896,"rock",546,501,0.189811,1.161409,1.083029,1.275511,0.875421,0.660417,-1,0.478322,-1,-1,-1,0.21,0,200405235716.81,7,"intra-plate",43.5,0.354919729452733,"1990FT"
"YMGH02",131.1434,34.1111,568.121681,516.405,566.79071,"hard-soil",398,286,0.211921,1.349918,1.146701,1.411088,0.925536,0.865974,-1,0.803072,-1,-1,-1,0.21,0,200405235716.81,7,"intra-plate",43.5,0.154695707232379,"1990FT"
"YMGH13",131.177,34.3408,569.725768,517.761,568.436528,"hard-soil",403,333,0.24,1.050544,0.877535,1.072329,0.735611,0.418767,-1,0.792653,-1,-1,-1,0.21,0,200405235716.81,7,"intra-plate",43.5,0.0441813394168752,"1990FT"
"FKSH18",140.538,37.4894,574.071911,554.215,573.040319,"hard-soil",307,251,0.390649,0.868643,0.853847,0.898266,0.631992,0.507224,-1,0.559178,-1,-1,-1,0.21,0,200405235716.81,7,"intra-plate",43.5,0.183829980437479,"1990FT"
"YMGH07",131.0506,34.1149,576.616534,524.908,575.3094,"hard-soil",351,265,0.231884,1.703686,1.476482,1.744314,0.91873,1.051293,-1,0.740005,-1,-1,-1,0.21,0,200405235716.81,7,"intra-plate",43.5,0.299993502644941,"1990FT"
"YMTH07",140.0278,37.896,590.114942,571.141,589.192001,"hard-soil",371,312,0.242956,0.495592,0.493549,0.503167,0.320662,0.474139,-1,0.476172,-1,-1,-1,0.21,0,200405235716.81,7,"intra-plate",43.5,0.0155664219896638,"1990FT"
"FKSH17",140.5974,37.6636,593.04924,573.375,592.078511,"rock",543,434,0.133333,0.717345,0.641587,0.808636,0.527297,0.426376,-1,0.261424,-1,-1,-1,0.21,0,200405235716.81,7,"intra-plate",43.5,0.389910100149988,"1990FT"
"KMMH13",130.9096,32.2209,594.700083,549.021,593.127928,"soft-soil",402,346,0.85812,0.703467,0.664733,0.71547,0.456796,0.334589,-1,0.763249,-1,-1,-1,0.21,0,200405235716.81,7,"intra-plate",43.5,-0.0600190045421894,"1990FT"
"NIGH04",139.5428,38.1313,595.998475,574.268,595.13551,"soft-soil",392,359,0.683254,0.609215,0.592318,0.62437,0.374005,0.274951,-1,0.600536,-1,-1,-1,0.21,0,200405235716.81,7,"intra-plate",43.5,-0.00598411627889237,"1990FT"
"FKSH20",140.9871,37.4911,597.170173,576.901,596.168523,"medium-soil",350,350,0.589714,1.104407,1.064082,1.129518,0.787449,0.489192,-1,0.36663,-1,-1,-1,0.21,0,200405235716.81,7,"intra-plate",43.5,0.462747097914066,"1990FT"
"NIGH02",139.5486,38.2799,611.44857,589.199,610.631394,"medium-soil",359,342,0.55697,0.778789,0.733719,0.827674,0.51908,0.45661,-1,0.326449,-1,-1,-1,0.21,0,200405235716.81,7,"intra-plate",43.5,0.35171442289793,"1990FT"
"MYGH09",140.6027,38.0091,625.682078,606.471,624.816795,"medium-soil",358,315,0.400272,0.471406,0.451786,0.505836,0.345143,0.36717,-1,0.277519,-1,-1,-1,0.21,0,200405235716.81,7,"intra-plate",43.5,0.211640046903357,"1990FT"
"MYGH10",140.8924,37.9411,632.961894,613.375,632.089667,"soft-soil",347,329,0.928685,0.746792,0.670936,0.748151,0.491568,0.406154,-1,0.415611,-1,-1,-1,0.21,0,200405235716.81,7,"intra-plate",43.5,0.207994061638739,"1990FT"
"YMTH14",139.9916,38.386,637.483777,617.664,636.706577,"medium-soil",310,261,0.514,0.564352,0.546208,0.581633,0.353591,0.696511,-1,0.249896,-1,-1,-1,0.21,0,200405235716.81,7,"intra-plate",43.5,0.339598752137714,"1990FT"
"MYGH07",140.6405,38.1802,643.635954,624.608,642.820443,"soft-soil",365,334,1.163761,0.808968,0.797583,0.903522,0.638442,0.494012,-1,0.374171,-1,-1,-1,0.21,0,200405235716.81,7,"intra-plate",43.5,0.328705764059951,"1990FT"
"MYGH05",140.7804,38.5793,687.986599,669.31,687.278591,"soft-soil",305,283,0.885214,0.673255,0.60119,0.790219,0.527775,0.484913,-1,0.24702,-1,-1,-1,0.21,0,200405235716.81,7,"intra-plate",43.5,0.386279630679885,"1990FT"
"MYGH06",141.071,38.5907,701.960404,683.03,701.26259,"rock",593,554,0.04,0.231852,0.219782,0.23482,0.136429,0.369874,-1,0.093946,-1,-1,-1,0.21,0,200405235716.81,7,"intra-plate",43.5,0.369113827522632,"1990FT"
"AKTH06",140.4952,38.9801,715.692096,696.6,715.072538,"rock",455,352,0.198095,0.321494,0.288475,0.341268,0.229682,0.311828,-1,0.082917,-1,-1,-1,0.21,0,200405235716.81,7,"intra-plate",43.5,0.541464601421764,"1990FT"
"IWTH26",141.0013,38.969,734.995271,716.565,734.381266,"hard-soil",371,320,0.367843,0.513741,0.452745,0.526781,0.276194,0.476076,-1,0.123125,-1,-1,-1,0.21,0,200405235716.81,7,"intra-plate",43.5,0.565507419269715,"1990FT"
"IWTH16",140.9465,39.6436,798.832557,780.06,798.352484,"rock",534,502,0.173626,0.372571,0.318962,0.379194,0.211454,0.344846,-1,0.038739,-1,-1,-1,0.21,0,200405235716.81,7,"intra-plate",43.5,0.915590540090845,"1990FT"
"NIG019",138.7898,37.3057,14.782164,13.807,7.011557,"hard-soil",395,332,0.312805,1307.911491,1227.667904,1500.700688,1054.72199,820.171545,-1,323.842587,-1,-1,-1,0.21,1,20042317560.3,6.3,"crustal",13.1,0.578746941672277,"1990FT"
"NIG020",138.962,37.2332,16.767939,5.10877,10.658285,"hard-soil",354,296,0.338966,521.430926,464.415642,639.340799,445.581389,312.135333,-1,487.766574,-1,-1,-1,0.21,1,20042317560.3,6.3,"crustal",13.1,-0.0213051965683788,"1990FT"
"FKS029",139.3801,37.0159,56.379443,46.985,54.921793,"rock",454,385,0.16092,215.112145,193.603925,217.976247,151.040253,70.177787,-1,66.583786,-1,-1,-1,0.21,1,20042317560.3,6.3,"crustal",13.1,0.463545671858812,"1990FT"
"GNM002",138.9695,36.7819,58.688205,42.6509,57.339842,"rock",465,394,0.122909,340.903601,310.112326,367.113971,215.498917,194.497045,-1,73.949358,-1,-1,-1,0.21,1,20042317560.3,6.3,"crustal",13.1,0.622584620463734,"1990FT"
"NGN001",138.366,36.8514,67.335491,55.2975,66.15046,"hard-soil",326,271,0.365116,77.631524,75.637968,78.049988,50.727962,34.128517,-1,98.335522,-1,-1,-1,0.21,1,20042317560.3,6.3,"crustal",13.1,-0.113970574426659,"1990FT"
"GNM003",139.0784,36.6578,73.900518,58.4434,72.855281,"hard-soil",395,333,0.310319,359.115046,325.811013,375.845403,238.829009,126.050791,-1,91.902948,-1,-1,-1,0.21,1,20042317560.3,6.3,"crustal",13.1,0.549636317546217,"1990FT"
"TCG004",139.4204,36.8061,74.082491,62.5592,73.01466,"hard-soil",452,383,0.280026,48.248567,47.681155,62.571202,43.8432,36.294324,-1,84.342098,-1,-1,-1,0.21,1,20042317560.3,6.3,"crustal",13.1,-0.247697632887188,"1990FT"
"TCG010",139.4376,36.6347,89.754511,76.8756,88.898917,"rock",540,461,0.149865,44.794605,44.747888,48.650416,34.382124,37.279048,-1,35.781073,-1,-1,-1,0.21,1,20042317560.3,6.3,"crustal",13.1,0.0971191823943094,"1990FT"
"NGN004",138.1938,36.6486,94.0476,81.7342,93.229504,"hard-soil",485,412,0.264113,29.750173,27.782216,38.158638,26.933708,14.336132,-1,58.38244,-1,-1,-1,0.21,1,20042317560.3,6.3,"crustal",13.1,-0.322515358144297,"1990FT"
"GNM009",139.3251,36.4106,106.695057,92.1908,106.002416,"hard-soil",414,349,0.29666,153.039601,113.047272,155.947817,74.245828,44.932385,-1,48.606896,-1,-1,-1,0.21,1,20042317560.3,6.3,"crustal",13.1,0.366562198392022,"1990FT"
"NGN007",138.1191,36.5339,108.028324,95.6232,107.329969,"hard-soil",341,285,0.352395,23.24618,21.465389,25.804568,18.122896,9.372633,-1,45.866515,-1,-1,-1,0.21,1,20042317560.3,6.3,"crustal",13.1,-0.329756979845187,"1990FT"
"NGN005",137.8544,36.6981,112.353628,99.9401,111.663997,"rock",534,455,0.133296,13.227135,12.812549,13.274682,7.442764,5.964772,-1,23.94111,-1,-1,-1,0.21,1,20042317560.3,6.3,"crustal",13.1,-0.271508742756291,"1990FT"
"NGN010",138.4357,36.3281,114.317557,99.8951,113.680321,"hard-soil",361,302,0.224946,6.353204,6.236254,7.020275,4.824798,3.703384,-1,42.72657,-1,-1,-1,0.21,1,20042317560.3,6.3,"crustal",13.1,-0.835774234452121,"1990FT"
"FKS016",140.1914,37.1228,119.746306,105.915,119.055243,"hard-soil",302,250,0.391762,19.270494,19.067119,19.777336,13.27696,7.911798,-1,38.751321,-1,-1,-1,0.21,1,20042317560.3,6.3,"crustal",13.1,-0.308001434772707,"1990FT"
"TCG006",140.1297,36.7639,127.334148,118.472,126.719436,"rock",487,413,0.134737,25.836839,21.157348,25.864368,14.769407,10.571838,-1,17.859617,-1,-1,-1,0.21,1,20042317560.3,6.3,"crustal",13.1,0.0735890882767796,"1990FT"
"NGN011",138.2669,36.2564,127.361608,113.623,126.796839,"rock",577,493,0.070748,7.281213,6.202002,7.299117,4.259764,2.168717,-1,19.243189,-1,-1,-1,0.21,1,20042317560.3,6.3,"crustal",13.1,-0.491745143418965,"1990FT"
"NGN014",138.4844,36.0956,137.606532,122.76,137.098504,"hard-soil",314,261,0.294689,16.645247,12.2682,16.66957,8.195728,4.735249,-1,29.848262,-1,-1,-1,0.21,1,20042317560.3,6.3,"crustal",13.1,-0.386138200797977,"1990FT"
"TCG012",139.8047,36.2859,140.052596,127.615,139.536404,"hard-soil",379,318,0.322957,40.297825,31.49455,40.564405,22.334614,11.68883,-1,27.765411,-1,-1,-1,0.21,1,20042317560.3,6.3,"crustal",13.1,0.0547313009103296,"1990FT"
