"stnm","stlon","stlat","Rhyp","Rrup","Repi","siteClass","AVS30","AVS20","Ts","PGA1","PGA2","PGA3","PGA4","PGA5","PGA1.1","PGA2.1","PGA3.1","PGA4.1","PGA5.1","sigma","valid","event.num","mag","eq.type","depth","resids","model"
"IWTH05",141.3512,38.8654,538.81808,538.81808,536.902243,"hard-soil",429,372,0.260769,1.395987,1.370346,1.407546,0.930027,0.568695,-1,0.181493,-1,-1,-1,0.21,0,200412030612.69,5.9,"inter-plate",47.3,0.877970357040479,"1990FT"
"IWTH26",141.0013,38.969,546.919988,546.919988,545.034491,"hard-soil",371,320,0.367843,1.354195,1.255548,1.385857,0.897065,0.781864,-1,0.167862,-1,-1,-1,0.21,0,200412030612.69,5.9,"inter-plate",47.3,0.873880927351977,"1990FT"
"MYGH06",141.071,38.5907,577.574384,577.574384,575.796835,"rock",593,554,0.04,0.287325,0.277667,0.297998,0.202769,0.264637,-1,0.070183,-1,-1,-1,0.21,0,200412030612.69,5.9,"inter-plate",47.3,0.597292339683751,"1990FT"
"MYGH05",140.7804,38.5793,593.005003,593.005003,591.277368,"soft-soil",305,283,0.885214,0.656171,0.628417,0.762943,0.538538,0.317554,-1,0.140402,-1,-1,-1,0.21,0,200412030612.69,5.9,"inter-plate",47.3,0.650874630824128,"1990FT"
"MYGH07",140.6405,38.1802,636.208596,636.208596,634.608082,"soft-soil",365,334,1.163761,1.623301,1.518299,1.697426,1.178355,0.5533,-1,0.093419,-1,-1,-1,0.21,0,200412030612.69,5.9,"inter-plate",47.3,1.21092209189989,"1990FT"
"MYGH10",140.8924,37.9411,646.544619,646.544619,644.971865,"soft-soil",347,329,0.928685,1.264131,1.157045,1.288067,0.832861,0.478879,-1,0.084802,-1,-1,-1,0.21,0,200412030612.69,5.9,"inter-plate",47.3,1.13494415500816,"1990FT"
"CHB018",140.3222,35.1577,77.741309,77.741309,35.601657,"hard-soil",343,286,0.247977,28.179045,27.085436,37.976056,26.784119,15.80287,-1,27.317101,-1,-1,-1,0.21,0,200417151018.17,5.5,"intra-plate",68.7,-0.00369877747797576,"1990FT"
"TKY008",139.3909,34.7852,112.135073,112.135073,88.497383,"hard-soil",445,377,0.282535,60.30068,51.824613,74.264853,51.126772,26.919714,-1,14.809751,-1,-1,-1,0.21,0,200417151018.17,5.5,"intra-plate",68.7,0.543988311004214,"1990FT"
"KNG005",139.5462,35.3192,114.349296,114.349296,91.128222,"rock",440,372,0.169749,10.574517,10.515242,11.664775,8.028755,6.683936,-1,8.01206,-1,-1,-1,0.21,0,200417151018.17,5.5,"intra-plate",68.7,0.118075079142796,"1990FT"
"KNG012",139.2048,35.3794,139.251975,139.251975,120.922578,"rock",475,403,0.115622,18.375324,14.829554,19.162886,10.242802,4.758615,-1,5.465098,-1,-1,-1,0.21,0,200417151018.17,5.5,"intra-plate",68.7,0.433530135670891,"1990FT"
"KNG008",139.3265,35.5751,142.322211,142.322211,124.399051,"hard-soil",330,275,0.35939,11.092427,10.429752,11.967226,7.058356,5.221755,-1,9.318107,-1,-1,-1,0.21,0,200417151018.17,5.5,"intra-plate",68.7,0.0489462886859747,"1990FT"
"SZO010",138.9349,35.3091,155.858077,155.858077,139.752369,"rock",423,357,0.13986,4.961907,4.909318,5.443439,3.554678,2.758788,-1,4.307495,-1,-1,-1,0.21,0,200417151018.17,5.5,"intra-plate",68.7,0.0567963823356544,"1990FT"
"YMN003",138.813,35.4648,171.374782,171.374782,156.851972,"rock",432,365,0.154083,5.917619,5.419949,5.994199,3.394945,3.010958,-1,3.481664,-1,-1,-1,0.21,0,200417151018.17,5.5,"intra-plate",68.7,0.192208343021229,"1990FT"
"IBR006",140.4528,36.369,183.765508,183.765508,170.093312,"hard-soil",393,331,0.214417,3.474797,3.286799,3.54091,2.294662,2.065377,-1,5.267659,-1,-1,-1,0.21,0,200417151018.17,5.5,"intra-plate",68.7,-0.204844507134835,"1990FT"
"TKY012",139.789,33.1161,209.502408,209.502408,198.051944,"rock",597,511,0.132446,10.567897,9.283573,10.674721,6.573857,2.726341,-1,2.126835,-1,-1,-1,0.21,0,200417151018.17,5.5,"intra-plate",68.7,0.639981358157235,"1990FT"
"TCG006",140.1297,36.7639,225.684421,225.684421,214.665467,"rock",487,413,0.134737,2.664608,2.343403,2.689776,1.481237,1.209077,-1,1.743075,-1,-1,-1,0.21,0,200417151018.17,5.5,"intra-plate",68.7,0.128530907487722,"1990FT"
"TCG010",139.4376,36.6347,226.884507,226.884507,215.967402,"rock",540,461,0.149865,3.215377,3.088961,3.322035,1.941813,1.868815,-1,1.71789,-1,-1,-1,0.21,0,200417151018.17,5.5,"intra-plate",68.7,0.25481707348151,"1990FT"
"NGN014",138.4844,36.0956,230.47006,230.47006,219.826304,"hard-soil",314,261,0.294689,5.182228,4.539608,5.336942,3.285021,2.069511,-1,2.933665,-1,-1,-1,0.21,0,200417151018.17,5.5,"intra-plate",68.7,0.189607833141688,"1990FT"
"GNM003",139.0784,36.6578,242.797017,242.797017,232.637715,"hard-soil",395,333,0.310319,2.982408,2.85346,3.844213,2.689597,1.092159,-1,2.531976,-1,-1,-1,0.21,0,200417151018.17,5.5,"intra-plate",68.7,0.051912204167073,"1990FT"
"TCG004",139.4204,36.8061,244.285485,244.285485,234.163488,"hard-soil",452,383,0.280026,2.766053,2.313421,2.802238,1.543219,1.493076,-1,2.487778,-1,-1,-1,0.21,0,200417151018.17,5.5,"intra-plate",68.7,-0.0315569493761415,"1990FT"
"NGN010",138.4357,36.3281,249.849168,249.849168,240.043719,"hard-soil",361,302,0.224946,1.983251,1.672468,2.024827,1.317966,0.820253,-1,2.330017,-1,-1,-1,0.21,0,200417151018.17,5.5,"intra-plate",68.7,-0.14400127269753,"1990FT"
"NGN020",137.9532,35.8282,254.081564,254.081564,244.51214,"rock",591,506,0.094737,1.289372,1.139556,1.386726,0.837133,0.621393,-1,1.243426,-1,-1,-1,0.21,0,200417151018.17,5.5,"intra-plate",68.7,-0.0378842720945364,"1990FT"
"FKS016",140.1914,37.1228,263.368093,263.368093,253.95249,"hard-soil",302,250,0.391762,2.561803,2.534049,3.138835,2.210904,1.168245,-1,1.99095,-1,-1,-1,0.21,0,200417151018.17,5.5,"intra-plate",68.7,0.104754654976394,"1990FT"
"NGN018",137.5295,35.8132,287.246439,287.246439,278.83071,"hard-soil",467,396,0.272044,1.187537,1.172084,1.492585,1.044592,0.526283,-1,1.517156,-1,-1,-1,0.21,0,200417151018.17,5.5,"intra-plate",68.7,-0.112071501489732,"1990FT"
"CHBH17",140.3398,35.1714,78.405813,78.405813,37.017166,"rock",526,489,0.066667,32.683056,27.726705,32.926255,20.12744,15.382663,-1,15.119013,-1,-1,-1,0.21,0,200417151018.17,5.5,"intra-plate",68.7,0.263374821278853,"1990FT"
"CHBH16",139.9649,35.1384,84.587579,84.587579,48.843646,"hard-soil",361,330,0.30303,15.784771,15.720725,15.812799,10.479558,8.370186,-1,23.941746,-1,-1,-1,0.21,0,200417151018.17,5.5,"intra-plate",68.7,-0.182683248298024,"1990FT"
"SZOH40",138.97,34.7832,144.411232,144.411232,126.960868,"rock",492,407,0.14,5.417419,5.332542,6.513582,4.476553,4.16086,-1,5.069109,-1,-1,-1,0.21,0,200417151018.17,5.5,"intra-plate",68.7,0.0220026548434893,"1990FT"
"SZOH38",138.9779,35.0854,146.099555,146.099555,128.819443,"rock",588,526,0.094713,10.116219,9.343317,10.117549,6.74796,4.954991,-1,4.947139,-1,-1,-1,0.21,0,200417151018.17,5.5,"intra-plate",68.7,0.276146970909704,"1990FT"
"TKYH12",139.265,35.6701,152.197288,152.197288,135.5722,"hard-soil",325,268,0.382456,8.63365,8.058216,8.641947,5.902805,5.300936,-1,8.087589,-1,-1,-1,0.21,0,200417151018.17,5.5,"intra-plate",68.7,-0.00158016845738362,"1990FT"
"IBRH17",140.314,36.0864,154.987283,154.987283,138.561281,"soft-soil",300,272,2.746074,6.492175,5.981927,6.598448,4.226524,3.305017,-1,10.101529,-1,-1,-1,0.21,0,200417151018.17,5.5,"intra-plate",68.7,-0.227546006123934,"1990FT"
"KNGH18",139.1283,35.6437,158.925339,158.925339,143.09639,"hard-soil",388,349,0.324943,14.447278,12.281567,14.68156,9.420741,3.167117,-1,7.360238,-1,-1,-1,0.21,0,200417151018.17,5.5,"intra-plate",68.7,0.222361923919612,"1990FT"
"SZOH39",138.7724,34.7988,160.444909,160.444909,144.946347,"hard-soil",376,285,0.222222,3.687453,3.455954,3.798986,2.342134,2.215659,-1,7.206925,-1,-1,-1,0.21,0,200417151018.17,5.5,"intra-plate",68.7,-0.319182049300631,"1990FT"
"YMNH14",138.9675,35.5115,162.333317,162.333317,146.903181,"hard-soil",309,236,0.313023,18.173824,17.553039,20.323406,14.365162,8.913019,-1,7.021653,-1,-1,-1,0.21,0,200417151018.17,5.5,"intra-plate",68.7,0.397912954312724,"1990FT"
"SITH11",139.2726,35.8637,165.653395,165.653395,150.489723,"hard-soil",371,279,0.264727,19.043164,17.526658,20.602618,12.236634,4.370986,-1,6.709421,-1,-1,-1,0.21,0,200417151018.17,5.5,"intra-plate",68.7,0.417014068635611,"1990FT"
"SITH10",139.2191,35.9964,178.825006,178.825006,164.859902,"rock",542,404,0.154286,6.104712,5.324779,6.605954,4.082204,1.539768,-1,3.152241,-1,-1,-1,0.21,0,200417151018.17,5.5,"intra-plate",68.7,0.227682174056599,"1990FT"
"SZOH37",138.5659,35.2028,181.873634,181.873634,168.309757,"hard-soil",365,281,0.24,10.447308,8.560523,10.665348,5.793367,3.496421,-1,5.400002,-1,-1,-1,0.21,0,200417151018.17,5.5,"intra-plate",68.7,0.200106377774912,"1990FT"
"SZOH43",138.4924,34.9739,184.315855,184.315855,170.982499,"hard-soil",323,273,0.37098,1.077577,1.07109,1.251719,0.864505,0.471267,-1,5.22987,-1,-1,-1,0.21,0,200417151018.17,5.5,"intra-plate",68.7,-0.688664929017245,"1990FT"
"IBRH18",140.6198,36.3631,184.511919,184.511919,170.892238,"rock",558,487,0.138889,3.651855,3.635637,3.962643,2.790098,1.782683,-1,2.925131,-1,-1,-1,0.21,0,200417151018.17,5.5,"intra-plate",68.7,0.0944351941666653,"1990FT"
"SITH06",139.2894,36.1131,184.905643,184.905643,171.416456,"hard-soil",369,294,0.218182,5.494092,5.271511,5.763921,3.482236,1.633737,-1,5.189723,-1,-1,-1,0.21,0,200417151018.17,5.5,"intra-plate",68.7,0.00679093897045102,"1990FT"
"YMNH15",138.6045,35.5323,190.127943,190.127943,177.149191,"rock",578,468,0.12,11.390728,9.795469,13.627103,9.364529,3.085509,-1,2.719286,-1,-1,-1,0.21,0,200417151018.17,5.5,"intra-plate",68.7,0.556570347768256,"1990FT"
"SZOH34",138.4243,35.1304,192.102517,192.102517,179.330357,"rock",430,370,0.136092,6.342171,6.31352,6.742,4.01862,2.622603,-1,2.650928,-1,-1,-1,0.21,0,200417151018.17,5.5,"intra-plate",68.7,0.376873628241279,"1990FT"
"SITH08",138.9691,36.0274,195.114584,195.114584,182.407695,"rock",520,399,0.141176,3.848936,3.684395,4.058047,2.647718,1.24768,-1,2.550434,-1,-1,-1,0.21,0,200417151018.17,5.5,"intra-plate",68.7,0.159752094899822,"1990FT"
"SZOH33",138.3526,35.0146,196.538225,196.538225,184.092803,"rock",519,405,0.145641,3.407673,3.396218,3.719315,2.28552,1.395169,-1,2.504466,-1,-1,-1,0.21,0,200417151018.17,5.5,"intra-plate",68.7,0.132280419222982,"1990FT"
"IBRH15",140.3013,36.5566,203.051433,203.051433,190.748804,"rock",450,343,0.164912,3.59252,3.551394,4.71037,3.320482,1.326881,-1,2.305929,-1,-1,-1,0.21,0,200417151018.17,5.5,"intra-plate",68.7,0.187552925471967,"1990FT"
"YMNH12",138.449,35.5623,203.41945,203.41945,191.346935,"rock",447,363,0.166667,3.010898,2.896066,3.301942,2.309806,1.901043,-1,2.29526,-1,-1,-1,0.21,0,200417151018.17,5.5,"intra-plate",68.7,0.10097656680329,"1990FT"
"TCGH15",139.8637,36.5595,208.1011,208.1011,196.133287,"hard-soil",423,337,0.251034,5.060691,4.97708,5.341515,3.096788,1.918827,-1,3.859755,-1,-1,-1,0.21,0,200417151018.17,5.5,"intra-plate",68.7,0.110414883037839,"1990FT"
"SZOH29",138.1973,35.307,214.988417,214.988417,203.643916,"rock",519,385,0.14632,1.002104,0.970383,1.091037,0.711201,0.376118,-1,1.98692,-1,-1,-1,0.21,0,200417151018.17,5.5,"intra-plate",68.7,-0.311237201740519,"1990FT"
"NGNH19",138.5845,35.9735,215.755414,215.755414,204.357615,"rock",473,425,0.102614,4.169868,3.889614,4.296544,2.488262,1.738052,-1,1.968204,-1,-1,-1,0.21,0,200417151018.17,5.5,"intra-plate",68.7,0.295836394578087,"1990FT"
"GNMH11",138.921,36.2862,218.058379,218.058379,206.737198,"hard-soil",421,375,0.327619,1.858033,1.682938,1.899649,1.236612,0.780648,-1,3.411867,-1,-1,-1,0.21,0,200417151018.17,5.5,"intra-plate",68.7,-0.306923976619828,"1990FT"
"SZOH31",138.0767,34.9398,219.695359,219.695359,208.655266,"hard-soil",397,319,0.280009,0.954459,0.805526,1.044846,0.722087,0.506948,-1,3.344025,-1,-1,-1,0.21,0,200417151018.17,5.5,"intra-plate",68.7,-0.618189952849067,"1990FT"
"TCGH13",140.1781,36.7342,222.205647,222.205647,211.00671,"rock",573,456,0.106667,5.550962,5.037199,5.835436,3.430251,1.998511,-1,1.818466,-1,-1,-1,0.21,0,200417151018.17,5.5,"intra-plate",68.7,0.442483923041333,"1990FT"
"TCGH11",139.7694,36.7084,225.222114,225.222114,214.199376,"hard-soil",328,256,0.3,5.701264,5.485612,5.999649,4.240775,1.917059,-1,3.125984,-1,-1,-1,0.21,0,200417151018.17,5.5,"intra-plate",68.7,0.244238335694198,"1990FT"
"IBRH13",140.575,36.7955,228.968526,228.968526,218.095304,"hard-soil",335,287,0.317815,4.242389,4.149462,4.435749,2.796483,1.980682,-1,2.987297,-1,-1,-1,0.21,0,200417151018.17,5.5,"intra-plate",68.7,0.142713389019276,"1990FT"
"NGNH11",138.3052,35.9157,231.949703,231.949703,221.403622,"medium-soil",372,315,0.419017,4.207632,3.920699,4.541518,2.688572,1.690291,-1,2.343203,-1,-1,-1,0.21,0,200417151018.17,5.5,"intra-plate",68.7,0.223553587212751,"1990FT"
"IBRH12",140.3181,36.8369,232.511044,232.511044,221.816426,"hard-soil",485,400,0.2,3.820049,3.262639,4.345276,2.852054,1.498948,-1,2.86249,-1,-1,-1,0.21,0,200417151018.17,5.5,"intra-plate",68.7,0.0568250450673259,"1990FT"
"TCGH09",139.8364,36.8625,239.820583,239.820583,229.481151,"rock",468,378,0.133333,2.374866,2.32794,2.58872,1.667401,0.975276,-1,1.470845,-1,-1,-1,0.21,0,200417151018.17,5.5,"intra-plate",68.7,0.199404874185551,"1990FT"
"SZOH32",137.8409,35.0086,240.620121,240.620121,230.584695,"rock",579,484,0.076667,0.515076,0.502317,0.709749,0.501573,0.323926,-1,1.456935,-1,-1,-1,0.21,0,200417151018.17,5.5,"intra-plate",68.7,-0.46246230018761,"1990FT"
"NGNH13",137.8767,35.5143,247.761657,247.761657,237.973499,"rock",513,440,0.061538,1.857336,1.46571,1.914732,1.276493,0.839953,-1,1.338991,-1,-1,-1,0.21,0,200417151018.17,5.5,"intra-plate",68.7,0.039270392972235,"1990FT"
"FKSH13",140.5853,36.9951,250.171792,250.171792,240.239282,"rock",561,428,0.170909,4.879503,4.137616,5.9096,4.033237,1.299158,-1,1.301616,-1,-1,-1,0.21,0,200417151018.17,5.5,"intra-plate",68.7,0.502267304115133,"1990FT"
"NGNH24",137.8797,35.6152,251.016853,251.016853,241.35025,"soft-soil",464,427,0.644202,2.041349,1.568066,2.041751,1.001299,0.661163,-1,2.985691,-1,-1,-1,0.21,0,200417151018.17,5.5,"intra-plate",68.7,-0.27968052078609,"1990FT"
"NGNH21",137.9236,35.8315,256.551269,256.551269,247.078116,"rock",507,471,0.089697,1.68163,1.47562,1.682239,1.03852,0.981913,-1,1.208157,-1,-1,-1,0.21,0,200417151018.17,5.5,"intra-plate",68.7,0.0868511583396204,"1990FT"
"GNMH08",138.5244,36.4917,256.85829,256.85829,247.311654,"soft-soil",338,314,1.158133,2.229666,1.955382,2.24848,1.38235,0.803235,-1,2.788921,-1,-1,-1,0.21,0,200417151018.17,5.5,"intra-plate",68.7,-0.154204599426286,"1990FT"
"FKSH10",140.093,37.1616,268.154356,268.154356,258.912249,"rock",487,401,0.106667,4.725206,4.628563,4.775774,2.994581,1.966841,-1,1.05661,-1,-1,-1,0.21,0,200417151018.17,5.5,"intra-plate",68.7,0.641531462713535,"1990FT"
"NGNH31",137.9389,36.1184,270.32995,270.32995,261.328946,"rock",526,447,0.100741,1.408219,1.137116,1.653197,1.104326,0.362758,-1,1.030597,-1,-1,-1,0.21,0,200417151018.17,5.5,"intra-plate",68.7,0.0427158964716677,"1990FT"
"NGNH20",137.7173,35.787,270.973283,270.973283,262.032393,"rock",529,467,0.087625,0.741158,0.624391,0.779618,0.456414,0.223145,-1,1.023041,-1,-1,-1,0.21,0,200417151018.17,5.5,"intra-plate",68.7,-0.214436404609803,"1990FT"
"NGNH23",137.6105,35.6056,272.906049,272.906049,264.050845,"rock",524,461,0.106667,1.597586,1.377579,1.691548,1.084901,0.464249,-1,1.000702,-1,-1,-1,0.21,0,200417151018.17,5.5,"intra-plate",68.7,0.138811745951085,"1990FT"
"FKSH12",140.5703,37.2169,273.734184,273.734184,264.667193,"hard-soil",448,357,0.244,8.70164,6.736621,9.796154,6.318723,2.356624,-1,1.767811,-1,-1,-1,0.21,0,200417151018.17,5.5,"intra-plate",68.7,0.581006282861762,"1990FT"
"NGNH10",137.7669,35.9632,275.080945,275.080945,266.260107,"rock",511,448,0.122105,1.305587,1.248865,1.393139,0.974064,0.598068,-1,0.976204,-1,-1,-1,0.21,0,200417151018.17,5.5,"intra-plate",68.7,0.106974911632342,"1990FT"
"NGNH26",138.1474,36.4663,278.279559,278.279559,269.506069,"soft-soil",300,283,0.821342,1.376659,1.305971,1.840029,1.297037,0.896235,-1,2.180823,-1,-1,-1,0.21,0,200417151018.17,5.5,"intra-plate",68.7,-0.222686885558365,"1990FT"
"FKSH08",140.2144,37.2822,280.349851,280.349851,271.508612,"rock",562,473,0.115556,1.275539,1.218887,1.672937,1.182589,0.533346,-1,0.919539,-1,-1,-1,0.21,0,200417151018.17,5.5,"intra-plate",68.7,0.122393291612913,"1990FT"
"FKSH05",139.8725,37.2544,280.463827,280.463827,271.638958,"rock",596,458,0.153333,1.332221,1.071057,1.334139,0.802207,0.306885,-1,0.918354,-1,-1,-1,0.21,0,200417151018.17,5.5,"intra-plate",68.7,0.0668024619742348,"1990FT"
"NGNH08",137.8591,36.2541,284.130625,284.130625,275.570738,"hard-soil",432,405,0.357333,0.544215,0.532472,0.581216,0.385982,0.277131,-1,1.571296,-1,-1,-1,0.21,0,200417151018.17,5.5,"intra-plate",68.7,-0.469961229568054,"1990FT"
"NGNH30",137.6849,36.064,286.488132,286.488132,278.02269,"rock",456,373,0.156303,1.848281,1.701884,2.026589,1.35592,0.589556,-1,0.858023,-1,-1,-1,0.21,0,200417151018.17,5.5,"intra-plate",68.7,0.297431025731613,"1990FT"
"NIGH14",138.8521,37.0303,287.102606,287.102606,278.537137,"hard-soil",437,367,0.217857,0.746404,0.691486,0.751159,0.498707,0.32306,-1,1.51961,-1,-1,-1,0.21,0,200417151018.17,5.5,"intra-plate",68.7,-0.341948751127213,"1990FT"
"NGNH18",137.595,35.9324,287.116196,287.116196,278.684074,"soft-soil",379,334,0.69103,4.152868,3.519525,4.260882,2.173256,0.707117,-1,1.973771,-1,-1,-1,0.21,0,200417151018.17,5.5,"intra-plate",68.7,0.251187290713331,"1990FT"
"FKSH09",140.4264,37.353,287.757388,287.757388,279.138458,"rock",584,433,0.16381,2.693675,2.62628,3.012389,2.021086,0.970135,-1,0.845873,-1,-1,-1,0.21,0,200417151018.17,5.5,"intra-plate",68.7,0.492035863751112,"1990FT"
"NGNH33",137.9637,36.4598,290.01628,290.01628,281.614304,"rock",435,378,0.185037,0.670102,0.581607,0.737673,0.503808,0.32365,-1,0.824711,-1,-1,-1,0.21,0,200417151018.17,5.5,"intra-plate",68.7,-0.151672162338867,"1990FT"
"NGNH27",138.0479,36.577,292.670823,292.670823,284.334761,"hard-soil",381,318,0.251286,0.596578,0.560047,0.615512,0.349519,0.275573,-1,1.427697,-1,-1,-1,0.21,0,200417151018.17,5.5,"intra-plate",68.7,-0.406411571750233,"1990FT"
"NGNH35",137.8201,36.3824,294.856431,294.856431,286.606964,"rock",511,427,0.115556,0.516285,0.480785,0.528922,0.308689,0.178634,-1,0.781285,-1,-1,-1,0.21,0,200417151018.17,5.5,"intra-plate",68.7,-0.210858576646476,"1990FT"
"FKSH19",140.7227,37.4703,302.156788,302.156788,293.942326,"hard-soil",338,255,0.313725,4.539549,3.94818,4.539702,2.776038,2.133913,-1,1.284752,-1,-1,-1,0.21,0,200417151018.17,5.5,"intra-plate",68.7,0.487577641773564,"1990FT"
"FKSH18",140.538,37.4894,302.851673,302.851673,294.660097,"hard-soil",307,251,0.390649,3.198921,3.000764,3.5609,2.498578,1.262079,-1,1.27491,-1,-1,-1,0.21,0,200417151018.17,5.5,"intra-plate",68.7,0.371752313360134,"1990FT"
"NIGH11",138.744,37.1728,305.090459,305.090459,297.035091,"soft-soil",375,363,0.789231,0.424282,0.406561,0.43196,0.254268,0.294972,-1,1.615717,-1,-1,-1,0.21,0,200417151018.17,5.5,"intra-plate",68.7,-0.599239578572177,"1990FT"
"FKSH20",140.9871,37.4911,307.883854,307.883854,299.817411,"medium-soil",350,350,0.589714,3.066225,3.02761,3.409314,2.253343,1.407157,-1,0.980605,-1,-1,-1,0.21,0,200417151018.17,5.5,"intra-plate",68.7,0.489605827677239,"1990FT"
"FKSH03",139.7533,37.6078,319.818917,319.818917,312.083906,"soft-soil",349,302,0.887944,0.624204,0.515164,0.663686,0.417826,0.328209,-1,1.374737,-1,-1,-1,0.21,0,200417151018.17,5.5,"intra-plate",68.7,-0.426274114903538,"1990FT"
"FKSH17",140.5974,37.6636,321.995891,321.995891,314.288489,"rock",543,434,0.133333,3.458826,2.44076,3.476495,1.785718,0.856516,-1,0.579515,-1,-1,-1,0.21,0,200417151018.17,5.5,"intra-plate",68.7,0.624460395729013,"1990FT"
"MYGH10",140.8924,37.9411,354.692546,354.692546,347.684133,"soft-soil",347,329,0.928685,3.209137,2.76423,3.408846,1.932329,1.129571,-1,0.945214,-1,-1,-1,0.21,0,200417151018.17,5.5,"intra-plate",68.7,0.466044030486732,"1990FT"
"MYGH09",140.6027,38.0091,359.492705,359.492705,352.58165,"medium-soil",358,315,0.400272,0.870695,0.850205,0.983131,0.668675,0.525159,-1,0.562313,-1,-1,-1,0.21,0,200417151018.17,5.5,"intra-plate",68.7,0.179545530704703,"1990FT"
"MYGH07",140.6405,38.1802,378.32601,378.32601,371.753085,"soft-soil",365,334,1.163761,2.933821,2.924386,3.294296,2.228403,1.382953,-1,0.737289,-1,-1,-1,0.21,0,200417151018.17,5.5,"intra-plate",68.7,0.598396941641411,"1990FT"
