"stnm","stlon","stlat","Rhyp","Rrup","Repi","siteClass","AVS30","AVS20","Ts","PGA1","PGA2","PGA3","PGA4","PGA5","PGA1.1","PGA2.1","PGA3.1","PGA4.1","PGA5.1","sigma","valid","event.num","mag","eq.type","depth","resids","model"
"SZOH34",138.4243,35.1304,253.848419,233.187,250.703038,"rock",430,370,0.136092,37.273284,27.720469,37.698425,20.453996,10.381184,-1,8.452696,-1,-1,-1,0.21,0,200405235716.81,7,"intra-plate",43.5,0.515805323871569,"1990FT"
"HYGH01",134.7941,34.2937,255.681289,200.663,252.484735,"soft-soil",347,345,0.72047,13.026705,12.543362,13.060383,8.437127,6.292984,-1,28.70233,-1,-1,-1,0.21,0,200405235716.81,7,"intra-plate",43.5,-0.35950319721635,"1990FT"
"GIFH26",136.8764,35.4121,256.337273,214.096,253.433702,"hard-soil",425,358,0.211667,30.020053,28.68787,30.898866,21.70165,13.062441,-1,18.829387,-1,-1,-1,0.21,0,200405235716.81,7,"intra-plate",43.5,0.182862122627936,"1990FT"
"TKSH01",134.4994,33.7751,258.874425,208.169,255.541285,"hard-soil",490,365,0.207543,11.759322,11.487564,15.457471,10.861667,7.452815,-1,20.198506,-1,-1,-1,0.21,0,200405235716.81,7,"intra-plate",43.5,-0.245091303706258,"1990FT"
"GIFH28",137.4706,35.4571,261.898444,229.16,259.035496,"hard-soil",366,338,0.327273,17.438744,16.213912,18.63381,10.700395,9.655898,-1,15.791239,-1,-1,-1,0.21,0,200405235716.81,7,"intra-plate",43.5,0.0114716049579133,"1990FT"
"SZOH29",138.1973,35.307,262.494735,241.252,259.535408,"rock",519,385,0.14632,15.963447,15.36941,18.963712,13.252964,8.952059,-1,7.706342,-1,-1,-1,0.21,0,200405235716.81,7,"intra-plate",43.5,0.29980891747543,"1990FT"
"TKSH04",134.5337,33.9902,263.085687,211.358,259.885056,"hard-soil",475,361,0.2,12.247725,12.071262,12.248838,8.505205,5.682723,-1,19.448559,-1,-1,-1,0.21,0,200405235716.81,7,"intra-plate",43.5,-0.207134752575001,"1990FT"
"GIFH07",136.4347,35.4179,263.917606,215.867,261.129851,"hard-soil",424,330,0.217511,22.06509,21.947792,23.199908,14.856553,9.490939,-1,18.440592,-1,-1,-1,0.21,0,200405235716.81,7,"intra-plate",43.5,0.0756159765827897,"1990FT"
"SIGH02",135.8671,35.2482,264.674234,210.795,261.869338,"rock",569,495,0.092308,17.841661,15.868145,17.943356,11.80749,7.319967,-1,10.978693,-1,-1,-1,0.21,0,200405235716.81,7,"intra-plate",43.5,0.159975519354687,"1990FT"
"SZOH37",138.5659,35.2028,267.003589,246.137,264.0335,"hard-soil",365,281,0.24,19.209138,19.045224,22.499684,15.895834,5.410518,-1,12.999935,-1,-1,-1,0.21,0,200405235716.81,7,"intra-plate",43.5,0.165844904143386,"1990FT"
"GIFH25",136.6127,35.5214,271.500951,225.862,268.818173,"rock",468,422,0.176,27.053242,26.604914,30.331871,21.212393,12.137128,-1,9.200063,-1,-1,-1,0.21,0,200405235716.81,7,"intra-plate",43.5,0.461171058103919,"1990FT"
"TKSH05",134.3156,33.6628,272.394663,221.826,269.201415,"hard-soil",380,320,0.281973,25.799992,23.999166,27.390222,18.776565,14.090233,-1,17.196464,-1,-1,-1,0.21,0,200405235716.81,7,"intra-plate",43.5,0.144756994852874,"1990FT"
"NGNH13",137.8767,35.5143,274.88287,248.659,272.152608,"rock",513,440,0.061538,27.563621,27.063112,28.398193,17.551203,10.756938,-1,7.084292,-1,-1,-1,0.21,0,200405235716.81,7,"intra-plate",43.5,0.582081281244613,"1990FT"
"HYGH09",135.0844,34.9082,275.938991,218.725,273.180187,"hard-soil",364,292,0.287614,13.71625,13.329879,14.094244,9.095178,5.726219,-1,17.831848,-1,-1,-1,0.21,0,200405235716.81,7,"intra-plate",43.5,-0.126370146341469,"1990FT"
"HYGH04",135.2811,35.0708,277.308376,220.482,274.608075,"rock",472,360,0.154286,10.109686,9.282585,10.117635,6.421236,5.102775,-1,9.795537,-1,-1,-1,0.21,0,200405235716.81,7,"intra-plate",43.5,-0.0233593146694385,"1990FT"
"SZOH38",138.9779,35.0854,277.473197,255.157,274.550543,"rock",588,526,0.094713,16.969634,16.546126,19.52094,12.795935,7.655397,-1,6.583695,-1,-1,-1,0.21,0,200405235716.81,7,"intra-plate",43.5,0.400226623892258,"1990FT"
"NGNH23",137.6105,35.6056,279.747219,248.702,277.113176,"rock",524,461,0.106667,35.001229,31.330106,36.071707,24.386268,12.484908,-1,7.080846,-1,-1,-1,0.21,0,200405235716.81,7,"intra-plate",43.5,0.645876715144862,"1990FT"
"NGNH24",137.8797,35.6152,285.656881,258.839,283.065543,"soft-soil",464,427,0.644202,12.917112,12.200027,14.997185,9.989345,9.062485,-1,14.635054,-1,-1,-1,0.21,0,200405235716.81,7,"intra-plate",43.5,-0.0790335374028059,"1990FT"
"KOCH01",134.1197,33.5421,287.847531,237.606,284.799621,"hard-soil",358,293,0.328586,9.08474,7.959364,9.836898,5.979358,4.132141,-1,14.327954,-1,-1,-1,0.21,0,200405235716.81,7,"intra-plate",43.5,-0.25530581209716,"1990FT"
"FKIH07",135.7266,35.4573,290.809875,236.905,288.339379,"hard-soil",384,310,0.293939,22.646444,21.57221,26.045685,18.266125,13.028283,-1,14.443534,-1,-1,-1,0.21,0,200405235716.81,7,"intra-plate",43.5,0.174221171293966,"1990FT"
"GIFH23",136.7847,35.7235,291.114959,247.972,288.673138,"rock",588,468,0.070588,14.560991,14.472034,14.676681,8.617416,7.089785,-1,7.139606,-1,-1,-1,0.21,0,200405235716.81,7,"intra-plate",43.5,0.306855328321312,"1990FT"
"KGWH04",134.3043,34.2264,292.186928,239.265,289.403656,"hard-soil",407,299,0.232804,13.154483,12.437773,13.481545,8.476049,5.402222,-1,14.058452,-1,-1,-1,0.21,0,200405235716.81,7,"intra-plate",43.5,-0.0531948761103236,"1990FT"
"TKSH03",134.1294,33.8778,294.455779,243.343,291.588941,"hard-soil",388,281,0.223776,20.611968,17.760905,20.630749,13.035581,7.085931,-1,13.419365,-1,-1,-1,0.21,0,200405235716.81,7,"intra-plate",43.5,0.121733125667514,"1990FT"
"FKIH04",135.8694,35.5587,295.304124,242.682,292.896758,"medium-soil",300,300,0.453333,30.162844,29.163424,35.455053,23.889962,15.582057,-1,10.993507,-1,-1,-1,0.21,0,200405235716.81,7,"intra-plate",43.5,0.423702254717464,"1990FT"
"YMNH12",138.449,35.5623,297.152531,276.666,294.613461,"rock",447,363,0.166667,9.663695,8.030019,10.802098,6.841409,4.276589,-1,5.183138,-1,-1,-1,0.21,0,200405235716.81,7,"intra-plate",43.5,0.190123800877246,"1990FT"
"YMNH15",138.6045,35.5323,300.307414,280.099,297.777029,"rock",578,468,0.12,11.240344,11.030831,12.087815,8.538764,5.850471,-1,4.991241,-1,-1,-1,0.21,0,200405235716.81,7,"intra-plate",43.5,0.344399690844897,"1990FT"
"NGNH20",137.7173,35.787,300.979054,270.789,298.586387,"rock",529,467,0.087625,16.466896,15.29226,18.033426,11.435594,4.769353,-1,5.530466,-1,-1,-1,0.21,0,200405235716.81,7,"intra-plate",43.5,0.441709946582809,"1990FT"
"GIFH08",136.9621,35.8323,301.663412,260.838,299.333297,"hard-soil",384,327,0.325379,9.944199,8.005639,9.965872,5.852264,3.982298,-1,11.016716,-1,-1,-1,0.21,0,200405235716.81,7,"intra-plate",43.5,-0.138656151419719,"1990FT"
"TKSH02",134.0918,34.0112,301.938121,250.556,299.189075,"hard-soil",349,266,0.273763,32.615515,29.156925,32.695453,18.255122,9.912545,-1,12.365595,-1,-1,-1,0.21,0,200405235716.81,7,"intra-plate",43.5,0.372526701404693,"1990FT"
"FKIH06",135.4841,35.4907,304.591693,249.604,302.259272,"rock",395,338,0.17,19.313602,18.86678,20.570937,14.166481,10.533588,-1,7.008972,-1,-1,-1,0.21,0,200405235716.81,7,"intra-plate",43.5,0.430043460264086,"1990FT"
"GIFH18",137.1495,35.8991,308.561489,270.139,306.294968,"rock",553,484,0.092308,9.83689,9.677897,10.849934,6.963917,4.404963,-1,5.570405,-1,-1,-1,0.21,0,200405235716.81,7,"intra-plate",43.5,0.239894223693623,"1990FT"
"HYGH06",134.4792,34.7935,309.421493,253.033,306.964458,"hard-soil",368,305,0.224,15.728026,14.546469,17.357142,11.863861,14.906445,-1,12.0249,-1,-1,-1,0.21,0,200405235716.81,7,"intra-plate",43.5,0.0826761123329465,"1990FT"
"NGNH21",137.9236,35.8315,309.63752,282.248,307.315581,"rock",507,471,0.089697,6.529629,6.377015,7.278561,4.9932,4.825077,-1,4.875039,-1,-1,-1,0.21,0,200405235716.81,7,"intra-plate",43.5,0.116639344158423,"1990FT"
"HYGH07",134.6701,35.0322,312.431106,255.407,310.061562,"rock",506,397,0.171014,4.719259,4.371021,5.570421,3.930314,3.81107,-1,6.565223,-1,-1,-1,0.21,0,200405235716.81,7,"intra-plate",43.5,-0.176666589289377,"1990FT"
"YMNH14",138.9675,35.5115,314.794231,293.703,312.356466,"hard-soil",309,236,0.313023,11.663553,11.057935,11.963504,7.757216,5.179399,-1,7.673654,-1,-1,-1,0.21,0,200405235716.81,7,"intra-plate",43.5,0.158671819518116,"1990FT"
"NGNH18",137.595,35.9324,315.009794,282.536,312.776749,"soft-soil",379,334,0.69103,30.180939,28.124554,33.764085,21.918219,12.373984,-1,11.258282,-1,-1,-1,0.21,0,200405235716.81,7,"intra-plate",43.5,0.397613521352356,"1990FT"
"KOCH12",133.8192,33.5294,315.043807,264.73,312.27657,"rock",496,427,0.186999,6.802346,6.360766,7.768042,5.422625,4.504335,-1,5.915178,-1,-1,-1,0.21,0,200405235716.81,7,"intra-plate",43.5,0.0315416010512414,"1990FT"
"GIFH17",136.8732,35.9514,315.249835,273.393,313.063147,"rock",429,354,0.16,15.486501,14.265529,16.413642,10.891154,5.760594,-1,5.373552,-1,-1,-1,0.21,0,200405235716.81,7,"intra-plate",43.5,0.424026425059648,"1990FT"
"TKSH06",133.8933,33.9997,318.904014,267.541,316.311272,"rock",469,423,0.095544,7.537146,6.358837,7.567964,4.795548,3.769742,-1,5.733196,-1,-1,-1,0.21,0,200405235716.81,7,"intra-plate",43.5,0.0449809033918795,"1990FT"
"NGNH10",137.7669,35.9632,320.817124,290.602,318.62545,"rock",511,448,0.122105,10.944774,9.733736,11.11421,6.010143,4.0475,-1,4.450326,-1,-1,-1,0.21,0,200405235716.81,7,"intra-plate",43.5,0.339887737514162,"1990FT"
"NGNH11",138.3052,35.9157,328.321399,305.594,326.139146,"medium-soil",372,315,0.419017,14.631885,13.756173,16.638833,10.766352,4.95286,-1,5.487993,-1,-1,-1,0.21,0,200405235716.81,7,"intra-plate",43.5,0.399084080195197,"1990FT"
"NGNH30",137.6849,36.064,330.493696,298.808,328.400959,"rock",456,373,0.156303,8.626179,8.041237,8.869337,5.10702,2.660836,-1,4.071742,-1,-1,-1,0.21,0,200405235716.81,7,"intra-plate",43.5,0.295542610536225,"1990FT"
"GIFH15",137.2208,36.1338,334.440682,296.726,332.416615,"soft-soil",369,355,0.687963,15.091827,13.803974,15.37276,9.752977,7.351481,-1,9.647512,-1,-1,-1,0.21,0,200405235716.81,7,"intra-plate",43.5,0.15558880518144,"1990FT"
"KNGH18",139.1283,35.6437,334.890096,313.775,332.631481,"hard-soil",388,349,0.324943,18.077093,16.742396,19.450302,11.391623,3.965368,-1,6.18364,-1,-1,-1,0.21,0,200405235716.81,7,"intra-plate",43.5,0.43257341204628,"1990FT"
"HYGH03",134.5237,35.2193,336.060453,279.069,333.921855,"rock",508,371,0.166,6.782388,6.407228,7.060963,4.240833,3.38145,-1,5.047995,-1,-1,-1,0.21,0,200405235716.81,7,"intra-plate",43.5,0.103551262483102,"1990FT"
"KYTH02",135.2496,35.7101,336.137868,280.94,334.103057,"rock",518,450,0.101818,6.863026,6.289648,7.452249,4.690551,4.579689,-1,4.945413,-1,-1,-1,0.21,0,200405235716.81,7,"intra-plate",43.5,0.104423774713417,"1990FT"
"EHMH03",133.6497,33.9154,338.021783,286.64,335.566674,"rock",591,456,0.142292,11.500332,10.964168,13.09995,9.24051,5.114829,-1,4.646547,-1,-1,-1,0.21,0,200405235716.81,7,"intra-plate",43.5,0.372845347043034,"1990FT"
"NGNH31",137.9389,36.1184,340.648314,312.08,338.621963,"rock",526,447,0.100741,12.585572,12.37802,13.771802,8.869823,4.05598,-1,3.530792,-1,-1,-1,0.21,0,200405235716.81,7,"intra-plate",43.5,0.54477904617578,"1990FT"
"KOCH13",133.576,33.7543,340.905255,289.808,338.428924,"rock",529,403,0.186785,7.411724,7.206153,9.380087,6.630599,5.107435,-1,4.488922,-1,-1,-1,0.21,0,200405235716.81,7,"intra-plate",43.5,0.205561419643409,"1990FT"
"NGNH19",138.5845,35.9735,343.379564,322.7,341.297379,"rock",473,425,0.102614,8.407991,7.678679,8.469292,5.838716,4.271245,-1,3.153454,-1,-1,-1,0.21,0,200405235716.81,7,"intra-plate",43.5,0.386500012449547,"1990FT"
"TKYH12",139.265,35.6701,344.27537,322.948,342.080249,"hard-soil",325,268,0.382456,8.769615,7.462572,8.795645,5.547684,3.49319,-1,5.608896,-1,-1,-1,0.21,0,200405235716.81,7,"intra-plate",43.5,0.124011146887653,"1990FT"
"CHBH16",139.9649,35.1384,344.513712,321.316,342.13571,"hard-soil",361,330,0.30303,2.784267,2.39932,2.985544,2.091843,1.098273,-1,5.706818,-1,-1,-1,0.21,0,200405235716.81,7,"intra-plate",43.5,-0.376305848217183,"1990FT"
"GIFH04",137.1983,36.2448,346.612701,308.544,344.692927,"hard-soil",379,296,0.228571,3.535686,3.05239,3.536232,2.115196,1.575862,-1,6.539365,-1,-1,-1,0.21,0,200405235716.81,7,"intra-plate",43.5,-0.330895556457281,"1990FT"
"GIFH13",136.8979,36.2743,350.513479,309.117,348.638035,"rock",592,541,0.054545,4.9334,4.644564,5.299066,3.742418,2.179,-1,3.644496,-1,-1,-1,0.21,0,200405235716.81,7,"intra-plate",43.5,0.10530747373136,"1990FT"
"HYGH15",134.5953,35.4697,350.97351,294.086,348.992681,"rock",526,425,0.142857,6.361917,6.044539,7.301938,4.777861,2.798954,-1,4.285153,-1,-1,-1,0.21,0,200405235716.81,7,"intra-plate",43.5,0.149396851160484,"1990FT"
"NGNH08",137.8591,36.2541,353.795967,323.674,351.887048,"hard-soil",432,405,0.357333,7.461367,7.455988,8.476897,5.488455,3.923,-1,5.565913,-1,-1,-1,0.21,0,200405235716.81,7,"intra-plate",43.5,0.126968786718188,"1990FT"
"OKYH11",134.1162,35.0732,354.115919,297.703,352.068646,"rock",531,410,0.142857,6.324696,5.703191,6.925145,4.706055,3.21014,-1,4.120637,-1,-1,-1,0.21,0,200405235716.81,7,"intra-plate",43.5,0.141153558531557,"1990FT"
"NGNH32",137.9898,36.2578,356.618881,328.099,354.720225,"medium-soil",309,280,0.449138,6.111992,5.171844,6.393245,3.742378,1.890643,-1,4.318631,-1,-1,-1,0.21,0,200405235716.81,7,"intra-plate",43.5,0.0782993187549259,"1990FT"
"KOCH02",133.3641,33.7079,359.238993,308.223,356.88918,"hard-soil",371,269,0.253333,3.29135,2.730669,3.356946,1.97169,1.787947,-1,6.561897,-1,-1,-1,0.21,0,200405235716.81,7,"intra-plate",43.5,-0.380760349108674,"1990FT"
"HYGH13",134.6566,35.6208,359.723058,303.058,357.828784,"rock",381,321,0.196667,11.451947,10.250704,12.971392,8.413733,4.395831,-1,3.889421,-1,-1,-1,0.21,0,200405235716.81,7,"intra-plate",43.5,0.420868738244168,"1990FT"
"TTRH01",134.2173,35.2604,359.76533,302.971,357.796106,"rock",426,368,0.165517,9.066487,7.638659,9.347647,5.361255,4.547052,-1,3.893064,-1,-1,-1,0.21,0,200405235716.81,7,"intra-plate",43.5,0.292725579613154,"1990FT"
"OKYH03",133.789,34.7783,361.334184,306.46,359.265598,"hard-soil",307,219,0.364731,5.307226,5.238776,6.920058,4.881228,5.055273,-1,6.687142,-1,-1,-1,0.21,0,200405235716.81,7,"intra-plate",43.5,-0.106010716199288,"1990FT"
"GIFH10",137.3716,36.3779,361.851643,325.627,360.041532,"hard-soil",385,308,0.259039,2.806827,2.468537,2.842132,1.691477,1.554635,-1,5.452021,-1,-1,-1,0.21,0,200405235716.81,7,"intra-plate",43.5,-0.344117878888024,"1990FT"
"SITH11",139.2726,35.8637,362.213369,341.324,360.180435,"hard-soil",371,279,0.264727,10.454648,9.915806,11.679907,7.751619,2.507353,-1,4.622055,-1,-1,-1,0.21,0,200405235716.81,7,"intra-plate",43.5,0.331492912280018,"1990FT"
"OKYH04",133.6861,34.6429,362.616315,308.618,360.524026,"hard-soil",360,263,0.265364,2.887304,2.505951,2.929251,1.654189,1.322122,-1,6.534183,-1,-1,-1,0.21,0,200405235716.81,7,"intra-plate",43.5,-0.416218718621427,"1990FT"
"KOCH07",133.2866,33.392,362.616661,312.722,360.207635,"hard-soil",385,292,0.264286,7.706889,6.415452,8.034232,4.613683,2.74831,-1,6.253545,-1,-1,-1,0.21,0,200405235716.81,7,"intra-plate",43.5,0.0111009806203068,"1990FT"
"SITH08",138.9691,36.0274,363.707807,343.825,361.740839,"rock",520,399,0.141176,10.501552,9.014286,10.629168,6.444514,3.056002,-1,2.524907,-1,-1,-1,0.21,0,200405235716.81,7,"intra-plate",43.5,0.552685946631816,"1990FT"
"NGNH35",137.8201,36.3824,367.052108,336.025,365.248851,"rock",511,427,0.115556,4.884526,4.587457,5.079114,3.199309,2.3107,-1,2.73986,-1,-1,-1,0.21,0,200405235716.81,7,"intra-plate",43.5,0.223843634445439,"1990FT"
"TTRH06",134.1988,35.3946,370.727267,313.866,368.853136,"rock",586,511,0.098537,20.559364,18.297052,21.37826,13.83793,5.202826,-1,3.464096,-1,-1,-1,0.21,0,200405235716.81,7,"intra-plate",43.5,0.72279120328545,"1990FT"
"SITH10",139.2191,35.9964,371.932215,351.454,369.990353,"rock",542,404,0.154286,2.321375,2.209363,2.528135,1.572234,1.08399,-1,2.331931,-1,-1,-1,0.21,0,200405235716.81,7,"intra-plate",43.5,-0.0234486192023143,"1990FT"
"TTRH05",134.3426,35.5729,374.916381,318.036,373.10266,"rock",479,366,0.19224,5.519872,5.465265,5.587527,3.224799,3.013468,-1,3.313567,-1,-1,-1,0.21,0,200405235716.81,7,"intra-plate",43.5,0.217315468477682,"1990FT"
"OKYH06",133.5283,34.6756,377.092611,323.281,375.097962,"rock",549,488,0.086486,5.42026,5.043697,5.713066,3.520056,2.669471,-1,3.134095,-1,-1,-1,0.21,0,200405235716.81,7,"intra-plate",43.5,0.206636831880934,"1990FT"
"NGNH33",137.9637,36.4598,377.854465,348.244,376.11713,"rock",435,378,0.185037,4.87765,4.378299,5.172578,3.349463,1.756003,-1,2.411148,-1,-1,-1,0.21,0,200405235716.81,7,"intra-plate",43.5,0.259081547942342,"1990FT"
"EHMH02",133.184,33.865,378.577118,327.18,376.398539,"rock",488,351,0.15894,15.20356,12.080302,15.422439,8.931242,4.931308,-1,3.00742,-1,-1,-1,0.21,0,200405235716.81,7,"intra-plate",43.5,0.603883707958633,"1990FT"
"ISKH07",136.6357,36.515,379.133596,335.379,377.474979,"medium-soil",440,440,0.454545,4.290328,3.966446,4.343765,2.986114,2.636487,-1,3.999848,-1,-1,-1,0.21,0,200405235716.81,7,"intra-plate",43.5,-0.0036419417347634,"1990FT"
"HRSH05",133.4179,34.5566,380.763796,327.858,378.763623,"hard-soil",370,350,0.342857,8.542252,7.404035,8.543252,4.880169,1.995045,-1,5.324955,-1,-1,-1,0.21,0,200405235716.81,7,"intra-plate",43.5,0.14315252106076,"1990FT"
"OKYH10",133.9263,35.2826,381.740457,325.228,379.905727,"rock",553,446,0.128,9.377654,9.23704,9.631677,5.414802,3.352574,-1,3.070141,-1,-1,-1,0.21,0,200405235716.81,7,"intra-plate",43.5,0.478374502848854,"1990FT"
"NGNH26",138.1474,36.4663,382.258894,354.742,380.535619,"soft-soil",300,283,0.821342,4.447854,4.369156,4.780143,3.263626,2.926117,-1,5.220946,-1,-1,-1,0.21,0,200405235716.81,7,"intra-plate",43.5,-0.0773516499466459,"1990FT"
"TYMH06",137.1595,36.5711,382.517751,343.845,380.865112,"soft-soil",570,570,0.631579,2.557768,2.489646,2.815076,1.771747,2.09676,-1,5.848146,-1,-1,-1,0.21,0,200405235716.81,7,"intra-plate",43.5,-0.370880606688322,"1990FT"
"NGNH34",137.8201,36.5327,383.372373,351.893,381.685065,"rock",488,428,0.155882,2.127298,2.016124,2.204697,1.527111,1.279545,-1,2.321314,-1,-1,-1,0.21,0,200405235716.81,7,"intra-plate",43.5,-0.061216651159223,"1990FT"
"SITH06",139.2894,36.1131,386.182587,365.812,384.339989,"hard-soil",369,294,0.218182,8.95774,8.244625,9.133657,5.729506,1.849158,-1,3.584341,-1,-1,-1,0.21,0,200405235716.81,7,"intra-plate",43.5,0.361761586890045,"1990FT"
"GNMH11",138.921,36.2862,387.194036,367.301,385.415254,"hard-soil",421,375,0.327619,2.919584,2.803306,3.176325,2.169423,1.870448,-1,3.529786,-1,-1,-1,0.21,0,200405235716.81,7,"intra-plate",43.5,-0.100077869698399,"1990FT"
"EHMH08",133.0016,33.5388,390.071726,339.535,387.88527,"hard-soil",363,293,0.302222,2.965978,2.687701,3.073745,1.951312,1.452401,-1,4.709455,-1,-1,-1,0.21,0,200405235716.81,7,"intra-plate",43.5,-0.243589698566371,"1990FT"
"NGNH27",138.0479,36.577,392.067189,362.992,390.419259,"hard-soil",381,318,0.251286,3.042623,2.714942,3.056087,1.695339,1.407512,-1,3.69012,-1,-1,-1,0.21,0,200405235716.81,7,"intra-plate",43.5,-0.133279933247275,"1990FT"
"KOCH06",132.9524,33.0754,393.283427,344.828,391.001913,"rock",579,430,0.16,2.634576,2.466004,2.657351,1.704266,2.235627,-1,2.498596,-1,-1,-1,0.21,0,200405235716.81,7,"intra-plate",43.5,-0.00570226366743404,"1990FT"
"OKYH09",133.6765,35.1809,393.425215,337.452,391.632351,"rock",511,386,0.175,5.810197,5.399206,6.089346,3.894853,2.525374,-1,2.699125,-1,-1,-1,0.21,0,200405235716.81,7,"intra-plate",43.5,0.301106899987701,"1990FT"
"GNMH08",138.5244,36.4917,394.65413,371.304,392.976439,"soft-soil",338,314,1.158133,4.103997,3.806461,4.708151,3.225858,2.790444,-1,4.400491,-1,-1,-1,0.21,0,200405235716.81,7,"intra-plate",43.5,-0.0629797526135145,"1990FT"
"EHMH10",133.0581,34.1918,398.249231,346.469,396.265815,"hard-soil",318,238,0.322689,10.611323,9.200798,10.782892,6.371267,5.373965,-1,4.380177,-1,-1,-1,0.21,0,200405235716.81,7,"intra-plate",43.5,0.322333835631659,"1990FT"
"TTRH07",133.7486,35.3649,399.999981,343.578,398.278305,"hard-soil",388,378,0.295747,5.847992,5.068211,5.865993,2.427491,2.48563,-1,4.514387,-1,-1,-1,0.21,0,200405235716.81,7,"intra-plate",43.5,0.0502559005225,"1990FT"
