"stnm","stlon","stlat","Rhyp","Rrup","Repi","siteClass","AVS30","AVS20","Ts","PGA1","PGA2","PGA3","PGA4","PGA5","PGA1.1","PGA2.1","PGA3.1","PGA4.1","PGA5.1","sigma","valid","event.num","mag","eq.type","depth","resids","model"
"TKCH02",143.8983,43.3822,440.164063,440.164063,437.406026,"hard-soil",440,359,0.249879,0.566528,0.528088,0.658427,0.440415,0.206206,-1,0.30131,-1,-1,-1,0.21,0,200410151330.98,5.8,"intra-plate",48.1,0.243692753460132,"1990FT"
"KSRH06",144.4285,43.22,440.806834,440.806834,438.048644,"soft-soil",326,279,1.541054,1.28302,1.173399,1.36655,0.806567,0.531731,-1,0.388897,-1,-1,-1,0.21,0,200410151330.98,5.8,"intra-plate",48.1,0.479611120805302,"1990FT"
"TKCH01",143.683,43.4683,443.533883,443.533883,440.798037,"rock",444,376,0.166845,0.466178,0.457578,0.51213,0.360648,0.178803,-1,0.163327,-1,-1,-1,0.21,0,200410151330.98,5.8,"intra-plate",48.1,0.447407150748402,"1990FT"
"SRCH06",142.0776,43.6948,449.283626,449.283626,446.601998,"hard-soil",320,255,0.289076,0.422197,0.417709,0.46901,0.302892,0.289233,-1,0.274933,-1,-1,-1,0.21,0,200410151330.98,5.8,"intra-plate",48.1,0.181646961708109,"1990FT"
"ABSH13",143.4514,43.7419,467.544908,467.544908,464.946731,"medium-soil",463,418,0.421554,0.634073,0.553125,0.676211,0.410917,0.376292,-1,0.186297,-1,-1,-1,0.21,0,200410151330.98,5.8,"intra-plate",48.1,0.472617426671885,"1990FT"
"NMRH02",144.9618,43.6772,505.54603,505.54603,503.124271,"soft-soil",315,266,0.80154,2.600901,2.241241,2.743656,1.827312,0.732046,-1,0.204643,-1,-1,-1,0.21,0,200410151330.98,5.8,"intra-plate",48.1,1.03949166480927,"1990FT"
"NMRH01",145.0246,43.785,518.421855,518.421855,516.057137,"soft-soil",437,381,0.70237,0.577064,0.53993,0.581732,0.379538,0.260472,-1,0.18048,-1,-1,-1,0.21,0,200410151330.98,5.8,"intra-plate",48.1,0.475908376437658,"1990FT"
"IBR006",140.4528,36.369,137.107587,137.107587,133.686754,"hard-soil",393,331,0.214417,11.533651,10.177823,11.941172,6.806312,4.646914,-1,11.007124,-1,-1,-1,0.21,0,200401114926.07,5.7,"inter-plate",31.1,-0.0340189651227134,"1990FT"
"FKS016",140.1914,37.1228,146.443289,146.443289,143.194212,"hard-soil",302,250,0.391762,36.545458,31.299445,38.397585,25.038753,7.280418,-1,9.608658,-1,-1,-1,0.21,0,200401114926.07,5.7,"inter-plate",31.1,0.512873900870716,"1990FT"
"TCG006",140.1297,36.7639,151.432386,151.432386,148.326099,"rock",487,413,0.134737,10.015469,9.829235,11.525101,7.562366,5.199583,-1,5.01842,-1,-1,-1,0.21,0,200401114926.07,5.7,"inter-plate",31.1,0.291952713087063,"1990FT"
"MYG016",140.621,38.0085,161.372222,161.372222,158.338959,"hard-soil",444,375,0.282344,9.227975,8.498687,9.440251,6.312494,3.503265,-1,7.790583,-1,-1,-1,0.21,0,200401114926.07,5.7,"inter-plate",31.1,0.037781875953569,"1990FT"
"MYG012",141.0193,38.3175,171.739624,171.739624,168.85175,"rock",430,363,0.156303,11.757579,10.679803,11.815228,7.341076,6.392772,-1,3.794292,-1,-1,-1,0.21,0,200401114926.07,5.7,"inter-plate",31.1,0.449432491611142,"1990FT"
"IBR008",139.9828,36.3062,177.379885,177.379885,174.774753,"rock",557,476,0.088,8.768891,8.156648,8.95888,5.945633,2.852991,-1,3.519311,-1,-1,-1,0.21,0,200401114926.07,5.7,"inter-plate",31.1,0.365054073793198,"1990FT"
"TCG010",139.4376,36.6347,213.759932,213.759932,211.603734,"rock",540,461,0.149865,3.406982,2.931147,3.414061,1.959256,1.302634,-1,2.210754,-1,-1,-1,0.21,0,200401114926.07,5.7,"inter-plate",31.1,0.122497179820952,"1990FT"
"FKS029",139.3801,37.0159,216.195053,216.195053,214.043086,"rock",454,385,0.16092,5.115405,4.095072,5.411313,3.473615,0.373109,-1,2.145338,-1,-1,-1,0.21,0,200401114926.07,5.7,"inter-plate",31.1,0.280765816564729,"1990FT"
"GNM009",139.3251,36.4106,228.760826,228.760826,226.763568,"hard-soil",414,349,0.29666,6.393689,6.126854,6.990515,4.939594,2.815528,-1,3.282559,-1,-1,-1,0.21,0,200401114926.07,5.7,"inter-plate",31.1,0.271024990679474,"1990FT"
"GNM003",139.0784,36.6578,244.859803,244.859803,242.989934,"hard-soil",395,333,0.310319,2.528194,2.370064,2.667563,1.767603,1.154796,-1,2.708839,-1,-1,-1,0.21,0,200401114926.07,5.7,"inter-plate",31.1,-0.058023119847754,"1990FT"
"FKSH20",140.9871,37.4911,99.590541,99.590541,94.634476,"medium-soil",350,350,0.589714,19.628065,17.550054,20.65207,11.786065,8.509274,-1,16.232512,-1,-1,-1,0.21,0,200401114926.07,5.7,"inter-plate",31.1,0.0338927244903022,"1990FT"
"FKSH13",140.5853,36.9951,111.128605,111.128605,106.796842,"rock",561,428,0.170909,7.590605,7.509966,8.689422,5.666087,3.212464,-1,9.228541,-1,-1,-1,0.21,0,200401114926.07,5.7,"inter-plate",31.1,-0.0894950751971449,"1990FT"
"IBRH13",140.575,36.7955,112.703121,112.703121,108.457914,"hard-soil",335,287,0.317815,16.68545,13.866591,18.257959,12.338984,8.536088,-1,16.042038,-1,-1,-1,0.21,0,200401114926.07,5.7,"inter-plate",31.1,-0.0632898346792177,"1990FT"
"FKSH19",140.7227,37.4703,116.141028,116.141028,111.940966,"hard-soil",338,255,0.313725,26.344848,22.858273,27.350361,14.170847,10.726311,-1,15.179887,-1,-1,-1,0.21,0,200401114926.07,5.7,"inter-plate",31.1,0.177774876601602,"1990FT"
"FKSH12",140.5703,37.2169,116.673188,116.673188,112.531536,"hard-soil",448,357,0.244,36.151896,33.806807,47.843273,33.670589,10.90273,-1,15.051705,-1,-1,-1,0.21,0,200401114926.07,5.7,"inter-plate",31.1,0.35141845632219,"1990FT"
"IBRH18",140.6198,36.3631,124.733103,124.733103,120.95257,"rock",558,487,0.138889,16.711466,16.11052,22.235645,15.65644,5.456681,-1,7.439092,-1,-1,-1,0.21,0,200401114926.07,5.7,"inter-plate",31.1,0.335589628683358,"1990FT"
"FKSH18",140.538,37.4894,130.751586,130.751586,127.044916,"hard-soil",307,251,0.390649,22.62232,22.023939,26.101369,18.091345,9.972335,-1,12.102668,-1,-1,-1,0.21,0,200401114926.07,5.7,"inter-plate",31.1,0.260013875616375,"1990FT"
"FKSH09",140.4264,37.353,133.131291,133.131291,129.512552,"rock",584,433,0.16381,12.736523,11.558496,13.675367,9.46667,3.874623,-1,6.548119,-1,-1,-1,0.21,0,200401114926.07,5.7,"inter-plate",31.1,0.246784763729641,"1990FT"
"IBRH12",140.3181,36.8369,134.291605,134.291605,130.760632,"hard-soil",485,400,0.2,17.436204,17.178995,17.436211,10.892132,5.448586,-1,11.476819,-1,-1,-1,0.21,0,200401114926.07,5.7,"inter-plate",31.1,0.175176220812042,"1990FT"
"FKSH17",140.5974,37.6636,136.925709,136.925709,133.371015,"rock",543,434,0.133333,10.842419,8.171329,11.225967,5.616435,4.586543,-1,6.188828,-1,-1,-1,0.21,0,200401114926.07,5.7,"inter-plate",31.1,0.120684283789775,"1990FT"
"MYGH10",140.8924,37.9411,141.244247,141.244247,137.759399,"soft-soil",347,329,0.928685,23.162203,22.61146,24.540236,15.255357,6.676571,-1,13.456908,-1,-1,-1,0.21,0,200401114926.07,5.7,"inter-plate",31.1,0.225383321917801,"1990FT"
"IBRH15",140.3013,36.5566,141.556913,141.556913,138.237905,"rock",450,343,0.164912,15.722763,13.718044,16.624669,10.617009,3.810945,-1,5.782336,-1,-1,-1,0.21,0,200401114926.07,5.7,"inter-plate",31.1,0.375188867451322,"1990FT"
"TCGH13",140.1781,36.7342,147.692956,147.692956,144.506267,"rock",573,456,0.106667,40.726217,34.684208,41.655566,27.195836,9.003586,-1,5.292461,-1,-1,-1,0.21,0,200401114926.07,5.7,"inter-plate",31.1,0.816474115609086,"1990FT"
"FKSH08",140.2144,37.2822,148.107518,148.107518,144.880804,"rock",562,473,0.115556,5.687424,5.492171,6.505164,4.575899,2.505386,-1,5.261208,-1,-1,-1,0.21,0,200401114926.07,5.7,"inter-plate",31.1,0.0186585788177166,"1990FT"
"FKSH10",140.093,37.1616,155.55617,155.55617,152.50319,"rock",487,401,0.106667,26.98428,25.33863,26.988325,15.55204,15.634827,-1,4.735691,-1,-1,-1,0.21,0,200401114926.07,5.7,"inter-plate",31.1,0.728399772626879,"1990FT"
"FKSH16",140.3766,37.7643,158.694798,158.694798,155.640994,"rock",531,462,0.088889,6.508372,5.871363,6.519286,3.611013,2.724501,-1,4.533193,-1,-1,-1,0.21,0,200401114926.07,5.7,"inter-plate",31.1,0.112334722211098,"1990FT"
"TCGH10",140.0225,36.8578,159.853668,159.853668,156.912013,"hard-soil",371,306,0.277333,17.618696,17.614037,20.646688,13.911624,4.920957,-1,7.955525,-1,-1,-1,0.21,0,200401114926.07,5.7,"inter-plate",31.1,0.345190059451162,"1990FT"
"MYGH09",140.6027,38.0091,162.454804,162.454804,159.442975,"medium-soil",358,315,0.400272,9.036478,7.881498,9.045392,4.79305,4.692573,-1,6.240802,-1,-1,-1,0.21,0,200401114926.07,5.7,"inter-plate",31.1,0.101368365613135,"1990FT"
"IBRH17",140.314,36.0864,163.664138,163.664138,160.837905,"soft-soil",300,272,2.746074,9.060889,9.057299,9.838365,6.911036,3.826952,-1,9.806973,-1,-1,-1,0.21,0,200401114926.07,5.7,"inter-plate",31.1,-0.0345362746966177,"1990FT"
"TCGH12",139.9842,36.6959,165.116163,165.116163,162.284239,"medium-soil",343,305,0.523077,12.765813,10.695866,12.7671,7.396745,5.008828,-1,6.017584,-1,-1,-1,0.21,0,200401114926.07,5.7,"inter-plate",31.1,0.249793792012405,"1990FT"
"MYGH07",140.6405,38.1802,175.015829,175.015829,172.209758,"soft-soil",365,334,1.163761,31.963142,29.874205,37.87569,26.623988,9.856657,-1,8.41327,-1,-1,-1,0.21,0,200401114926.07,5.7,"inter-plate",31.1,0.550331530257762,"1990FT"
"TCGH09",139.8364,36.8625,176.116386,176.116386,173.458739,"rock",468,378,0.133333,3.252201,3.160966,3.41848,2.197129,1.625301,-1,3.578827,-1,-1,-1,0.21,0,200401114926.07,5.7,"inter-plate",31.1,-0.0539208806584927,"1990FT"
"FKSH05",139.8725,37.2544,176.326871,176.326871,173.642596,"rock",596,458,0.153333,4.970673,4.321142,5.01551,3.251802,1.582117,-1,3.568831,-1,-1,-1,0.21,0,200401114926.07,5.7,"inter-plate",31.1,0.08307255552366,"1990FT"
"TCGH15",139.8637,36.5595,178.499175,178.499175,175.897891,"hard-soil",423,337,0.251034,8.50417,7.338197,8.656535,4.699923,2.992558,-1,6.183801,-1,-1,-1,0.21,0,200401114926.07,5.7,"inter-plate",31.1,0.0743338614052744,"1990FT"
"TCGH11",139.7694,36.7084,183.57774,183.57774,181.043188,"hard-soil",328,256,0.3,8.651676,8.592238,10.303938,7.203335,1.990944,-1,5.784359,-1,-1,-1,0.21,0,200401114926.07,5.7,"inter-plate",31.1,0.17185105908553,"1990FT"
"YMTH07",140.0278,37.896,191.658375,191.658375,189.143022,"hard-soil",371,312,0.242956,5.362118,5.094891,5.465135,3.084231,1.454133,-1,5.208851,-1,-1,-1,0.21,0,200401114926.07,5.7,"inter-plate",31.1,-0.00960703739454527,"1990FT"
"FKSH03",139.7533,37.6078,197.704581,197.704581,195.29636,"soft-soil",349,302,0.887944,3.700837,3.308918,3.87232,2.089283,2.235022,-1,6.26314,-1,-1,-1,0.21,0,200401114926.07,5.7,"inter-plate",31.1,-0.277106114778426,"1990FT"
"MYGH06",141.071,38.5907,198.011398,198.011398,195.492605,"rock",593,554,0.04,1.68401,1.606473,1.786528,1.234938,1.261035,-1,2.69299,-1,-1,-1,0.21,0,200401114926.07,5.7,"inter-plate",31.1,-0.224361309970138,"1990FT"
"YMTH01",140.3805,38.3841,206.351075,206.351075,203.973857,"soft-soil",327,300,0.729697,3.025096,2.652253,3.272603,1.943399,1.17819,-1,5.615943,-1,-1,-1,0.21,0,200401114926.07,5.7,"inter-plate",31.1,-0.325807741876838,"1990FT"
"MYGH05",140.7804,38.5793,206.391006,206.391006,203.987344,"soft-soil",305,283,0.885214,4.839636,4.765973,5.044873,3.457537,2.658436,-1,5.613137,-1,-1,-1,0.21,0,200401114926.07,5.7,"inter-plate",31.1,-0.0710540645175914,"1990FT"
"TCGH07",139.4534,36.8817,209.706459,209.706459,207.492613,"hard-soil",419,343,0.252727,3.586644,3.45954,4.387216,3.086088,0.985275,-1,4.145767,-1,-1,-1,0.21,0,200401114926.07,5.7,"inter-plate",31.1,-0.0785865338852342,"1990FT"
"YMTH05",139.8017,37.9883,213.605655,213.605655,211.354372,"rock",533,498,0.044444,0.731812,0.698312,0.847834,0.591502,0.673673,-1,2.214974,-1,-1,-1,0.21,0,200401114926.07,5.7,"inter-plate",31.1,-0.501319127565835,"1990FT"
"IWTH05",141.3512,38.8654,221.27011,221.27011,218.993595,"hard-soil",429,372,0.260769,5.222554,4.838488,5.711135,3.776739,1.613497,-1,3.595063,-1,-1,-1,0.21,0,200401114926.07,5.7,"inter-plate",31.1,0.129003162911669,"1990FT"
"NIGH08",139.4648,37.6708,223.654376,223.654376,221.534813,"soft-soil",326,304,1.343415,1.386257,1.359262,1.485176,0.982458,0.869277,-1,4.536463,-1,-1,-1,0.21,0,200401114926.07,5.7,"inter-plate",31.1,-0.523414197282399,"1990FT"
"FKSH21",139.3147,37.3421,226.119109,226.119109,224.046414,"hard-soil",364,317,0.287059,1.094168,0.984985,1.12717,0.652167,0.797288,-1,3.389137,-1,-1,-1,0.21,0,200401114926.07,5.7,"inter-plate",31.1,-0.536659507969613,"1990FT"
"YMTH14",139.9916,38.386,228.694397,228.694397,226.564727,"medium-soil",310,261,0.514,2.546185,2.256126,2.691696,1.537049,1.019728,-1,2.671138,-1,-1,-1,0.21,0,200401114926.07,5.7,"inter-plate",31.1,-0.073332975276179,"1990FT"
"IWTH26",141.0013,38.969,239.412282,239.412282,237.315767,"hard-soil",371,320,0.367843,4.405148,4.163049,4.546637,2.969447,1.850647,-1,2.88937,-1,-1,-1,0.21,0,200401114926.07,5.7,"inter-plate",31.1,0.158608363413745,"1990FT"
"NIGH04",139.5428,38.1313,241.053493,241.053493,239.061562,"soft-soil",392,359,0.683254,1.198718,1.004843,1.204269,0.600115,0.526308,-1,3.68104,-1,-1,-1,0.21,0,200401114926.07,5.7,"inter-plate",31.1,-0.563872325282795,"1990FT"
"SITH06",139.2894,36.1131,242.406893,242.406893,240.539668,"hard-soil",369,294,0.218182,5.373756,4.639054,5.412888,2.868665,1.547868,-1,2.788524,-1,-1,-1,0.21,0,200401114926.07,5.7,"inter-plate",31.1,0.221055041180471,"1990FT"
"IWTH25",140.8638,39.0092,247.312535,247.312535,245.285801,"hard-soil",506,495,0.267135,2.776649,2.736988,3.730485,2.630125,1.487824,-1,2.631687,-1,-1,-1,0.21,0,200401114926.07,5.7,"inter-plate",31.1,0.0170386581530018,"1990FT"
"YMTH12",140.0055,38.6357,248.222285,248.222285,246.248439,"medium-soil",366,338,0.454315,0.737297,0.70773,0.782518,0.526552,0.629374,-1,2.117023,-1,-1,-1,0.21,0,200401114926.07,5.7,"inter-plate",31.1,-0.475857971031618,"1990FT"
"NIGH02",139.5486,38.2799,250.059051,250.059051,248.131728,"medium-soil",359,342,0.55697,0.745284,0.70057,0.75303,0.484148,0.581276,-1,2.071885,-1,-1,-1,0.21,0,200401114926.07,5.7,"inter-plate",31.1,-0.470914110319242,"1990FT"
"SITH10",139.2191,35.9964,253.332885,253.332885,251.554779,"rock",542,404,0.154286,3.212364,2.814616,3.215048,1.793697,0.955249,-1,1.375211,-1,-1,-1,0.21,0,200401114926.07,5.7,"inter-plate",31.1,0.311049814617789,"1990FT"
"IWTH04",141.3909,39.1809,255.047514,255.047514,253.058406,"rock",455,372,0.190909,4.64025,4.635794,4.770772,2.84819,2.050743,-1,1.347995,-1,-1,-1,0.21,0,200401114926.07,5.7,"inter-plate",31.1,0.536435847737586,"1990FT"
"SITH11",139.2726,35.8637,255.582737,255.582737,253.825325,"hard-soil",371,279,0.264727,4.074804,4.024715,4.338365,2.911295,1.185587,-1,2.388992,-1,-1,-1,0.21,0,200401114926.07,5.7,"inter-plate",31.1,0.226520436895265,"1990FT"
"NIGH06",139.0676,37.6527,255.737651,255.737651,253.898863,"hard-soil",336,264,0.248889,1.275246,1.258186,1.303066,0.742039,0.581809,-1,2.384689,-1,-1,-1,0.21,0,200401114926.07,5.7,"inter-plate",31.1,-0.277686899987003,"1990FT"
"AKTH06",140.4952,38.9801,256.795724,256.795724,254.856843,"rock",455,352,0.198095,2.228004,2.028143,2.332406,1.557672,0.550297,-1,1.320858,-1,-1,-1,0.21,0,200401114926.07,5.7,"inter-plate",31.1,0.186242441996418,"1990FT"
"TKYH12",139.265,35.6701,266.938677,266.938677,265.265909,"hard-soil",325,268,0.382456,2.494985,2.166945,2.678695,1.59704,0.904348,-1,2.095145,-1,-1,-1,0.21,0,200401114926.07,5.7,"inter-plate",31.1,0.0146338036472382,"1990FT"
"GNMH11",138.921,36.2862,267.114256,267.114256,265.423428,"hard-soil",421,375,0.327619,1.383899,1.336284,1.673307,1.151512,0.544556,-1,2.090926,-1,-1,-1,0.21,0,200401114926.07,5.7,"inter-plate",31.1,-0.19443989455283,"1990FT"
"AKTH04",140.7129,39.174,268.829897,268.829897,266.963197,"hard-soil",458,362,0.220775,3.020021,2.752655,3.363863,2.347508,0.902746,-1,2.050196,-1,-1,-1,0.21,0,200401114926.07,5.7,"inter-plate",31.1,0.127956401278202,"1990FT"
"SITH08",138.9691,36.0274,272.483424,272.483424,270.83679,"rock",520,399,0.141176,2.362231,2.094257,2.67214,1.717734,0.739069,-1,1.102618,-1,-1,-1,0.21,0,200401114926.07,5.7,"inter-plate",31.1,0.278604897770506,"1990FT"
"IWTH22",141.3015,39.334,272.871699,272.871699,271.00898,"rock",532,422,0.152782,2.296136,2.229552,2.387835,1.667091,1.479022,-1,1.097746,-1,-1,-1,0.21,0,200401114926.07,5.7,"inter-plate",31.1,0.307715742600894,"1990FT"
"YMTH08",140.0333,38.9701,276.141445,276.141445,274.352517,"hard-soil",320,272,0.361525,0.733781,0.660165,0.779871,0.511789,0.334549,-1,1.886132,-1,-1,-1,0.21,0,200401114926.07,5.7,"inter-plate",31.1,-0.455919587753034,"1990FT"
"KNGH18",139.1283,35.6437,278.916541,278.916541,277.321073,"hard-soil",388,349,0.324943,1.97038,1.639327,1.978832,1.09921,0.730394,-1,1.82768,-1,-1,-1,0.21,0,200401114926.07,5.7,"inter-plate",31.1,-0.0472345676062456,"1990FT"
"IWTH21",141.9336,39.4734,285.325255,285.325255,283.521216,"rock",521,398,0.168333,2.523503,2.460148,2.982901,2.054579,0.861284,-1,0.953343,-1,-1,-1,0.21,0,200401114926.07,5.7,"inter-plate",31.1,0.411712052530981,"1990FT"
"IWTH19",141.0001,39.4559,291.201791,291.201791,289.459764,"rock",482,417,0.123209,2.261702,2.253701,2.407407,1.501049,0.668386,-1,0.892532,-1,-1,-1,0.21,0,200401114926.07,5.7,"inter-plate",31.1,0.402272501548292,"1990FT"
"AKTH03",140.1283,39.2223,295.308099,295.308099,293.622789,"medium-soil",320,277,0.583426,0.714655,0.618921,0.722927,0.40798,0.320086,-1,1.236204,-1,-1,-1,0.21,0,200401114926.07,5.7,"inter-plate",31.1,-0.300454925947978,"1990FT"
"GNMH08",138.5244,36.4917,296.382278,296.382278,294.86085,"soft-soil",338,314,1.158133,1.487937,1.415634,1.821714,1.28625,0.639405,-1,1.951608,-1,-1,-1,0.21,0,200401114926.07,5.7,"inter-plate",31.1,-0.139441604935155,"1990FT"
"IWTH15",141.0929,39.6148,306.570159,306.570159,304.907175,"soft-soil",337,300,0.96,1.980488,1.860135,1.982762,1.344077,0.885697,-1,1.74344,-1,-1,-1,0.21,0,200401114926.07,5.7,"inter-plate",31.1,0.0281374586016971,"1990FT"
"IWTH16",140.9465,39.6436,312.425249,312.425249,310.796015,"rock",534,502,0.173626,0.931148,0.896378,1.064304,0.738169,0.656586,-1,0.705668,-1,-1,-1,0.21,0,200401114926.07,5.7,"inter-plate",31.1,0.103890765126271,"1990FT"
"AKTH16",140.3481,39.545,318.600352,318.600352,317.020959,"soft-soil",375,346,0.613675,0.818805,0.810017,0.865518,0.60418,0.35063,-1,1.5281,-1,-1,-1,0.21,0,200401114926.07,5.7,"inter-plate",31.1,-0.275657642117935,"1990FT"
"IWTH02",141.3826,39.825,325.697136,325.697136,324.117489,"hard-soil",389,304,0.257778,5.93492,4.738279,5.984947,3.427442,0.706538,-1,1.088996,-1,-1,-1,0.21,0,200401114926.07,5.7,"inter-plate",31.1,0.638594344779315,"1990FT"
"YMNH15",138.6045,35.5323,325.875518,325.875518,324.527873,"rock",578,468,0.12,0.60516,0.527126,0.655483,0.456872,0.247212,-1,0.609473,-1,-1,-1,0.21,0,200401114926.07,5.7,"inter-plate",31.1,-0.0630400329734594,"1990FT"
"YMNH12",138.449,35.5623,336.632935,336.632935,335.330982,"rock",447,363,0.166667,0.566411,0.505732,0.567543,0.379709,0.283094,-1,0.542706,-1,-1,-1,0.21,0,200401114926.07,5.7,"inter-plate",31.1,-0.0306441887195689,"1990FT"
"AKTH01",140.579,39.8147,339.3326,339.3326,337.835057,"rock",475,412,0.170233,0.791076,0.746669,0.866384,0.549539,0.632114,-1,0.527213,-1,-1,-1,0.21,0,200401114926.07,5.7,"inter-plate",31.1,0.151142010246271,"1990FT"
"IWTH12",141.4245,40.1533,361.474035,361.474035,360.039231,"soft-soil",367,312,0.634909,1.722394,1.659505,1.989692,1.406045,0.636473,-1,0.965277,-1,-1,-1,0.21,0,200401114926.07,5.7,"inter-plate",31.1,0.235326607029108,"1990FT"
"IWTH01",141.3423,40.2383,371.509183,371.509183,370.11212,"rock",438,352,0.179832,2.122784,1.935929,2.318341,1.639071,0.604464,-1,0.374971,-1,-1,-1,0.21,0,200401114926.07,5.7,"inter-plate",31.1,0.712891744569223,"1990FT"
"IWTH07",141.5709,40.2705,373.5549,373.5549,372.159809,"hard-soil",395,299,0.218519,0.559143,0.485784,0.562182,0.31728,0.230638,-1,0.654536,-1,-1,-1,0.21,0,200401114926.07,5.7,"inter-plate",31.1,-0.129490331498658,"1990FT"
"IWTH06",141.1709,40.2611,375.832843,375.832843,374.454606,"medium-soil",431,356,0.493632,0.834272,0.761866,0.841801,0.55101,0.37221,-1,0.519675,-1,-1,-1,0.21,0,200401114926.07,5.7,"inter-plate",31.1,0.166146767903076,"1990FT"
"NGNH24",137.8797,35.6152,380.467709,380.467709,379.326022,"soft-soil",464,427,0.644202,0.561727,0.520659,0.578247,0.366711,0.266271,-1,0.79112,-1,-1,-1,0.21,0,200401114926.07,5.7,"inter-plate",31.1,-0.181688983969989,"1990FT"
