"stnm","stlon","stlat","Rhyp","Rrup","Repi","siteClass","AVS30","AVS20","Ts","PGA1","PGA2","PGA3","PGA4","PGA5","PGA1.1","PGA2.1","PGA3.1","PGA4.1","PGA5.1","sigma","valid","event.num","mag","eq.type","depth","resids","model"
"MYGH05",140.7804,38.5793,422.80454,422.80454,416.907159,"soft-soil",305,283,0.885214,0.766901,0.722822,0.83819,0.576121,0.367551,-1,0.466541,-1,-1,-1,0.21,0,200417151018.17,5.5,"intra-plate",68.7,0.190141546481239,"1990FT"
"YMTH12",140.0055,38.6357,428.409352,428.409352,422.601542,"medium-soil",366,338,0.454315,0.247579,0.224503,0.269834,0.18076,0.106249,-1,0.275869,-1,-1,-1,0.21,0,200417151018.17,5.5,"intra-plate",68.7,-0.0894807518144679,"1990FT"
"IWTH05",141.3512,38.8654,461.085951,461.085951,455.658706,"hard-soil",429,372,0.260769,1.779743,1.703296,2.062568,1.376905,0.680496,-1,0.244338,-1,-1,-1,0.21,0,200417151018.17,5.5,"intra-plate",68.7,0.843299111838458,"1990FT"
"IWTH24",141.0118,39.1979,492.444845,492.444845,487.355824,"soft-soil",486,447,0.722678,0.534005,0.472873,0.593728,0.408515,0.321371,-1,0.232702,-1,-1,-1,0.21,0,200417151018.17,5.5,"intra-plate",68.7,0.307944401544879,"1990FT"
"IWTH04",141.3909,39.1809,495.737365,495.737365,490.677103,"rock",455,372,0.190909,1.829187,1.585238,1.830596,0.92111,0.531347,-1,0.097249,-1,-1,-1,0.21,0,200417151018.17,5.5,"intra-plate",68.7,1.2122093301094,"1990FT"
"IWTH21",141.9336,39.4734,537.840386,537.840386,533.158127,"rock",521,398,0.168333,1.416735,1.382353,1.655191,1.137882,0.445406,-1,0.06453,-1,-1,-1,0.21,0,200417151018.17,5.5,"intra-plate",68.7,1.33085729426695,"1990FT"
"MYG012",141.0193,38.3175,184.993703,184.993703,178.79781,"rock",430,363,0.156303,5.254969,5.031316,5.849284,3.94843,2.964547,-1,2.906781,-1,-1,-1,0.21,0,200410151330.98,5.8,"intra-plate",48.1,0.238269281964369,"1990FT"
"AOM029",140.2965,40.5758,191.838861,191.838861,185.747697,"hard-soil",461,391,0.273971,1.96912,1.884184,2.172554,1.394822,1.263601,-1,4.743559,-1,-1,-1,0.21,0,200410151330.98,5.8,"intra-plate",48.1,-0.400980995111549,"1990FT"
"AOM004",141.4486,41.4087,206.867753,206.867753,201.139829,"hard-soil",359,301,0.237403,2.880002,2.508669,3.026483,1.66117,1.168996,-1,3.91975,-1,-1,-1,0.21,0,200410151330.98,5.8,"intra-plate",48.1,-0.193815005579869,"1990FT"
"AOM002",140.8132,41.328,220.349072,220.349072,215.00622,"hard-soil",374,314,0.24459,6.50226,5.918348,7.1587,4.593454,1.792049,-1,3.31736,-1,-1,-1,0.21,0,200410151330.98,5.8,"intra-plate",48.1,0.251407894448188,"1990FT"
"MYG016",140.621,38.0085,231.582857,231.582857,226.694032,"hard-soil",444,375,0.282344,2.142241,2.077503,2.154882,1.276221,1.058093,-1,2.894616,-1,-1,-1,0.21,0,200410151330.98,5.8,"intra-plate",48.1,-0.14404929874669,"1990FT"
"HKD105",142.0543,42.4825,315.746616,315.746616,311.967535,"rock",375,314,0.165079,2.063771,2.017883,2.161022,1.387282,0.662883,-1,0.620381,-1,-1,-1,0.21,0,200410151330.98,5.8,"intra-plate",48.1,0.512237493065851,"1990FT"
"IWTH21",141.9336,39.4734,55.522848,55.522848,28.047065,"rock",521,398,0.168333,105.213721,90.224638,118.09522,82.319993,45.261645,-1,24.776493,-1,-1,-1,0.21,0,200410151330.98,5.8,"intra-plate",48.1,0.561285314275594,"1990FT"
"IWTH02",141.3826,39.825,81.871854,81.871854,66.379271,"hard-soil",389,304,0.257778,128.376558,122.112175,160.020704,111.166034,18.423096,-1,25.209252,-1,-1,-1,0.21,0,200410151330.98,5.8,"intra-plate",48.1,0.685199007108022,"1990FT"
"IWTH08",141.7831,40.2686,86.952571,86.952571,72.43721,"hard-soil",304,238,0.335238,54.827459,44.403296,56.663654,31.607395,20.11535,-1,22.906658,-1,-1,-1,0.21,0,200410151330.98,5.8,"intra-plate",48.1,0.287453476646822,"1990FT"
"IWTH12",141.4245,40.1533,93.79196,93.79196,80.569137,"soft-soil",367,312,0.634909,42.210223,41.723232,43.9412,24.298118,26.310069,-1,26.279,-1,-1,-1,0.21,0,200410151330.98,5.8,"intra-plate",48.1,0.200769107832947,"1990FT"
"IWTH22",141.3015,39.334,93.86451,93.86451,80.790609,"rock",532,422,0.152782,32.40834,31.19977,32.580142,19.648639,25.901666,-1,11.328803,-1,-1,-1,0.21,0,200410151330.98,5.8,"intra-plate",48.1,0.439967367693511,"1990FT"
"IWTH07",141.5709,40.2705,94.840984,94.840984,81.757213,"hard-soil",395,299,0.218519,41.954731,30.841394,43.590423,23.645101,10.136251,-1,19.85566,-1,-1,-1,0.21,0,200410151330.98,5.8,"intra-plate",48.1,0.191249671954846,"1990FT"
"IWTH04",141.3909,39.1809,96.694086,96.694086,84.076234,"rock",455,372,0.190909,63.92272,61.603961,69.24323,42.391668,33.792464,-1,10.776263,-1,-1,-1,0.21,0,200410151330.98,5.8,"intra-plate",48.1,0.757140455233074,"1990FT"
"IWTH15",141.0929,39.6148,101.417779,101.417779,89.432671,"soft-soil",337,300,0.96,15.507317,14.282618,15.612602,10.311448,8.958656,-1,23.003871,-1,-1,-1,0.21,0,200410151330.98,5.8,"intra-plate",48.1,-0.206993102719332,"1990FT"
"IWTH01",141.3423,40.2383,103.853315,103.853315,92.081723,"rock",438,352,0.179832,42.724781,40.258014,44.817751,28.630881,15.179347,-1,9.526837,-1,-1,-1,0.21,0,200410151330.98,5.8,"intra-plate",48.1,0.625903611862561,"1990FT"
"IWTH11",141.1915,40.0811,104.002849,104.002849,92.2833,"medium-soil",343,331,0.56592,47.166327,38.169351,48.91332,25.6665,14.288894,-1,13.77905,-1,-1,-1,0.21,0,200410151330.98,5.8,"intra-plate",48.1,0.442495499564949,"1990FT"
"IWTH19",141.0001,39.4559,111.037413,111.037413,100.235947,"rock",482,417,0.123209,15.380501,14.93351,16.539418,11.346724,7.273465,-1,8.454544,-1,-1,-1,0.21,0,200410151330.98,5.8,"intra-plate",48.1,0.247071708428543,"1990FT"
"IWTH16",140.9465,39.6436,112.461149,112.461149,101.791708,"rock",534,502,0.173626,19.868301,17.515809,24.883996,17.253093,10.516584,-1,8.260623,-1,-1,-1,0.21,0,200410151330.98,5.8,"intra-plate",48.1,0.326417398615598,"1990FT"
"IWTH06",141.1709,40.2611,115.308255,115.308255,104.840024,"medium-soil",431,356,0.493632,33.657593,32.722722,34.011127,20.393541,14.45529,-1,11.439689,-1,-1,-1,0.21,0,200410151330.98,5.8,"intra-plate",48.1,0.456435204898079,"1990FT"
"IWTH05",141.3512,38.8654,121.947796,121.947796,112.244123,"hard-soil",429,372,0.260769,18.077008,17.642664,19.843525,13.320571,10.003252,-1,12.665499,-1,-1,-1,0.21,0,200410151330.98,5.8,"intra-plate",48.1,0.143941858215925,"1990FT"
"IWTH10",140.9529,40.1391,123.006449,123.006449,113.279279,"rock",496,386,0.192717,9.899073,9.03874,10.455792,7.087293,3.281715,-1,6.985875,-1,-1,-1,0.21,0,200410151330.98,5.8,"intra-plate",48.1,0.11188708362908,"1990FT"
"AOMH18",141.0145,40.2962,127.224205,127.224205,117.825337,"hard-soil",369,289,0.247059,22.873738,20.065911,23.258175,15.101842,9.026104,-1,11.672824,-1,-1,-1,0.21,0,200410151330.98,5.8,"intra-plate",48.1,0.235282944266054,"1990FT"
"IWTH26",141.0013,38.969,133.800864,133.800864,125.030839,"hard-soil",371,320,0.367843,12.431574,11.791473,12.456579,8.300782,5.505851,-1,10.566679,-1,-1,-1,0.21,0,200410151330.98,5.8,"intra-plate",48.1,0.0476295464862364,"1990FT"
"IWTH25",140.8638,39.0092,140.245522,140.245522,131.908505,"hard-soil",506,495,0.267135,5.42512,5.259296,5.549101,3.838532,3.718948,-1,9.605025,-1,-1,-1,0.21,0,200410151330.98,5.8,"intra-plate",48.1,-0.26157088542469,"1990FT"
"AKTH01",140.579,39.8147,142.291052,142.291052,134.021701,"rock",475,412,0.170233,2.446519,2.340418,2.592609,1.614128,1.975937,-1,5.227477,-1,-1,-1,0.21,0,200410151330.98,5.8,"intra-plate",48.1,-0.348998701091211,"1990FT"
"AKTH04",140.7129,39.174,142.419511,142.419511,134.210478,"hard-soil",458,362,0.220775,19.330082,17.923192,20.927863,13.870354,4.991782,-1,9.304921,-1,-1,-1,0.21,0,200410151330.98,5.8,"intra-plate",48.1,0.284702666876442,"1990FT"
"AOMH11",140.995,40.58,147.721303,147.721303,139.683959,"medium-soil",539,419,0.402266,14.432297,13.997894,18.171026,12.692411,4.549472,-1,7.008287,-1,-1,-1,0.21,0,200410151330.98,5.8,"intra-plate",48.1,0.300450821922449,"1990FT"
"AKTH10",140.5812,40.3002,157.0811,157.0811,149.590718,"hard-soil",333,251,0.317656,3.520648,3.274562,3.602499,1.978025,1.296243,-1,7.551554,-1,-1,-1,0.21,0,200410151330.98,5.8,"intra-plate",48.1,-0.362883114614552,"1990FT"
"MYGH06",141.071,38.5907,158.558073,158.558073,151.258359,"rock",593,554,0.04,2.675972,2.535202,2.726848,1.530948,2.181887,-1,4.14834,-1,-1,-1,0.21,0,200410151330.98,5.8,"intra-plate",48.1,-0.213861775372782,"1990FT"
"AKTH13",140.4072,39.9819,158.924244,158.924244,151.559456,"rock",535,419,0.150663,3.196574,2.516233,3.196973,1.743321,1.303863,-1,4.127299,-1,-1,-1,0.21,0,200410151330.98,5.8,"intra-plate",48.1,-0.214915078495698,"1990FT"
"AKTH16",140.3481,39.545,161.086671,161.086671,153.863737,"soft-soil",375,346,0.613675,5.626509,5.384096,6.929981,4.807984,2.170223,-1,9.279637,-1,-1,-1,0.21,0,200410151330.98,5.8,"intra-plate",48.1,-0.236418192976838,"1990FT"
"MYGH02",140.6513,38.8587,163.655129,163.655129,156.591511,"hard-soil",398,341,0.234398,2.186076,2.123278,2.228977,1.565121,1.376698,-1,6.895327,-1,-1,-1,0.21,0,200410151330.98,5.8,"intra-plate",48.1,-0.511548006826583,"1990FT"
"AOMH06",141.3738,40.9664,164.535947,164.535947,157.312058,"medium-soil",434,398,0.502642,12.003375,10.465245,12.69421,7.100403,3.90101,-1,5.539249,-1,-1,-1,0.21,0,200410151330.98,5.8,"intra-plate",48.1,0.276298512019172,"1990FT"
"AKTH09",140.4596,40.2755,164.816725,164.816725,157.701661,"soft-soil",319,302,0.720893,4.586736,3.849853,4.588253,2.66425,2.541313,-1,8.816145,-1,-1,-1,0.21,0,200410151330.98,5.8,"intra-plate",48.1,-0.359834577411337,"1990FT"
"AKTH06",140.4952,38.9801,167.676869,167.676869,160.787658,"rock",455,352,0.198095,1.236619,1.201176,1.444225,0.974102,0.84578,-1,3.660098,-1,-1,-1,0.21,0,200410151330.98,5.8,"intra-plate",48.1,-0.48388606766096,"1990FT"
"AOMH15",140.5565,40.4841,168.67044,168.67044,161.70462,"rock",577,489,0.11,2.234524,2.028417,2.295969,1.445959,1.453852,-1,3.611119,-1,-1,-1,0.21,0,200410151330.98,5.8,"intra-plate",48.1,-0.250484558626652,"1990FT"
"AOMH10",140.6646,40.6091,169.476812,169.476812,162.531219,"medium-soil",329,292,0.528342,2.373503,2.27742,2.637952,1.80483,2.249034,-1,5.179305,-1,-1,-1,0.21,0,200410151330.98,5.8,"intra-plate",48.1,-0.35682835634845,"1990FT"
"AKTH12",140.2221,39.9155,172.507765,172.507765,165.760634,"hard-soil",389,308,0.24,1.65608,1.644717,1.677878,1.102375,0.746712,-1,6.11515,-1,-1,-1,0.21,0,200410151330.98,5.8,"intra-plate",48.1,-0.570315933050785,"1990FT"
"MYGH05",140.7804,38.5793,175.171916,175.171916,168.606591,"soft-soil",305,283,0.885214,5.377645,4.922456,5.407667,3.713782,1.885454,-1,7.665808,-1,-1,-1,0.21,0,200410151330.98,5.8,"intra-plate",48.1,-0.192376094760902,"1990FT"
"AKTH08",140.2341,40.3188,183.53675,183.53675,177.181038,"rock",471,402,0.176471,2.819981,2.446265,2.845989,1.745334,1.986198,-1,2.962687,-1,-1,-1,0.21,0,200410151330.98,5.8,"intra-plate",48.1,-0.0831822701671124,"1990FT"
"AKTH03",140.1283,39.2223,185.805997,185.805997,179.611377,"medium-soil",320,277,0.583426,1.71892,1.706991,1.728685,1.213516,1.432889,-1,4.170407,-1,-1,-1,0.21,0,200410151330.98,5.8,"intra-plate",48.1,-0.387947209548818,"1990FT"
"AOMH14",140.2726,40.5488,191.992787,191.992787,185.909395,"hard-soil",360,293,0.213333,2.660415,2.642585,2.965121,1.92416,1.200123,-1,4.734169,-1,-1,-1,0.21,0,200410151330.98,5.8,"intra-plate",48.1,-0.25321479178858,"1990FT"
"YMTH08",140.0333,38.9701,202.76239,202.76239,197.120924,"hard-soil",320,272,0.361525,1.522176,1.317696,1.568814,0.966011,1.694523,-1,4.127253,-1,-1,-1,0.21,0,200410151330.98,5.8,"intra-plate",48.1,-0.495845864286865,"1990FT"
"YMTH01",140.3805,38.3841,213.894384,213.894384,208.577368,"soft-soil",327,300,0.729697,2.872694,2.671876,3.112271,2.123175,1.41965,-1,4.665689,-1,-1,-1,0.21,0,200410151330.98,5.8,"intra-plate",48.1,-0.242099487781439,"1990FT"
"MYGH07",140.6405,38.1802,215.569265,215.569265,210.297647,"soft-soil",365,334,1.163761,5.330058,5.318775,5.384701,3.566616,2.864082,-1,4.570152,-1,-1,-1,0.21,0,200410151330.98,5.8,"intra-plate",48.1,0.0658809741258702,"1990FT"
"AOMH07",140.0233,40.7451,220.608018,220.608018,215.331281,"rock",572,490,0.083243,0.743186,0.74254,0.825552,0.527815,0.74889,-1,1.854316,-1,-1,-1,0.21,0,200410151330.98,5.8,"intra-plate",48.1,-0.397463891950854,"1990FT"
"YMTH12",140.0055,38.6357,222.071594,222.071594,216.953121,"medium-soil",366,338,0.454315,1.086391,1.042086,1.400579,0.982919,0.890805,-1,2.641093,-1,-1,-1,0.21,0,200410151330.98,5.8,"intra-plate",48.1,-0.403880132788127,"1990FT"
"MYGH10",140.8924,37.9411,225.478309,225.478309,220.448863,"soft-soil",347,329,0.928685,4.528445,4.517487,5.455518,3.851371,1.691993,-1,4.048242,-1,-1,-1,0.21,0,200410151330.98,5.8,"intra-plate",48.1,0.0476304451501096,"1990FT"
"MYGH09",140.6027,38.0091,232.432499,232.432499,227.562488,"medium-soil",358,315,0.400272,1.392142,1.274479,1.595945,1.127882,0.997563,-1,2.329643,-1,-1,-1,0.21,0,200410151330.98,5.8,"intra-plate",48.1,-0.261956689957332,"1990FT"
"AOMH01",140.9127,41.5273,235.232861,235.232861,230.221826,"medium-soil",301,253,0.511648,2.064703,2.029335,2.167827,1.531672,0.820858,-1,2.252703,-1,-1,-1,0.21,0,200410151330.98,5.8,"intra-plate",48.1,-0.0453501916889758,"1990FT"
"YMTH14",139.9916,38.386,238.810149,238.810149,234.071823,"medium-soil",310,261,0.514,1.221739,1.185524,1.265342,0.863808,0.618529,-1,2.158524,-1,-1,-1,0.21,0,200410151330.98,5.8,"intra-plate",48.1,-0.26024653145999,"1990FT"
"YMTH13",139.7606,38.4704,249.400673,249.400673,244.869875,"rock",576,490,0.091429,0.42523,0.363789,0.427179,0.211895,0.311082,-1,1.313447,-1,-1,-1,0.21,0,200410151330.98,5.8,"intra-plate",48.1,-0.55756298986523,"1990FT"
"FKSH17",140.5974,37.6636,264.326736,264.326736,260.071424,"rock",543,434,0.133333,1.898421,1.731979,2.129301,1.37231,0.625627,-1,1.104148,-1,-1,-1,0.21,0,200410151330.98,5.8,"intra-plate",48.1,0.19551533182606,"1990FT"
"FKSH20",140.9871,37.4911,266.26931,266.26931,262.042689,"medium-soil",350,350,0.589714,2.645307,2.569077,2.987178,2.010948,0.86663,-1,1.565614,-1,-1,-1,0.21,0,200410151330.98,5.8,"intra-plate",48.1,0.215092424865964,"1990FT"
"YMTH07",140.0278,37.896,273.138057,273.138057,269.026938,"hard-soil",371,312,0.242956,1.202089,1.111348,1.230606,0.78735,0.453298,-1,1.779869,-1,-1,-1,0.21,0,200410151330.98,5.8,"intra-plate",48.1,-0.204537966735362,"1990FT"
"OSMH02",140.6331,41.8374,275.804207,275.804207,271.535867,"soft-soil",325,298,1.943871,1.958143,1.579096,2.03147,1.154194,0.657778,-1,2.243006,-1,-1,-1,0.21,0,200410151330.98,5.8,"intra-plate",48.1,-0.152421901884288,"1990FT"
"FKSH18",140.538,37.4894,283.407088,283.407088,279.451837,"hard-soil",307,251,0.390649,2.051847,1.985458,2.579265,1.818555,0.82585,-1,1.584168,-1,-1,-1,0.21,0,200410151330.98,5.8,"intra-plate",48.1,0.0980594681674496,"1990FT"
"HDKH07",142.9164,42.133,285.154056,285.154056,280.957259,"rock",459,400,0.18756,2.731567,2.512036,2.867166,1.59919,1.160675,-1,0.871,-1,-1,-1,0.21,0,200410151330.98,5.8,"intra-plate",48.1,0.460007703978402,"1990FT"
"NIGH04",139.5428,38.1313,286.340369,286.340369,282.423532,"soft-soil",392,359,0.683254,0.67667,0.611522,0.698978,0.448512,0.344009,-1,1.99106,-1,-1,-1,0.21,0,200410151330.98,5.8,"intra-plate",48.1,-0.512672261809819,"1990FT"
"FKSH09",140.4264,37.353,301.200014,301.200014,297.489938,"rock",584,433,0.16381,1.08416,0.962012,1.136175,0.668726,0.372855,-1,0.728096,-1,-1,-1,0.21,0,200410151330.98,5.8,"intra-plate",48.1,0.120991844259449,"1990FT"
"HDKH06",142.3572,42.3498,301.720349,301.720349,297.761605,"hard-soil",412,354,0.212422,3.796437,3.775615,4.287401,2.960893,1.418332,-1,1.290976,-1,-1,-1,0.21,0,200410151330.98,5.8,"intra-plate",48.1,0.466069534260829,"1990FT"
"HYMH02",140.3087,41.9856,303.10916,303.10916,299.231896,"rock",497,434,0.172549,0.805135,0.779819,1.002338,0.696358,0.310551,-1,0.712869,-1,-1,-1,0.21,0,200410151330.98,5.8,"intra-plate",48.1,0.0389840831195292,"1990FT"
"FKSH12",140.5703,37.2169,308.530295,308.530295,304.911492,"hard-soil",448,357,0.244,3.924368,3.424863,3.999632,2.82494,1.524296,-1,1.197479,-1,-1,-1,0.21,0,200410151330.98,5.8,"intra-plate",48.1,0.456375297702045,"1990FT"
"TKCH08",143.152,42.4865,327.548926,327.548926,323.883339,"soft-soil",353,312,0.674489,2.865774,2.840724,3.428857,2.356464,0.833353,-1,1.26405,-1,-1,-1,0.21,0,200410151330.98,5.8,"intra-plate",48.1,0.351664787469079,"1990FT"
"HDKH03",142.3521,42.5934,328.386968,328.386968,324.744331,"hard-soil",341,288,0.351852,1.506074,1.398173,1.53367,0.984857,0.387042,-1,0.964262,-1,-1,-1,0.21,0,200410151330.98,5.8,"intra-plate",48.1,0.161365858991949,"1990FT"
"IBUH05",141.3497,42.5629,331.073995,331.073995,327.483882,"soft-soil",379,297,1.199461,1.105927,0.937991,1.296268,0.864765,0.483815,-1,1.216796,-1,-1,-1,0.21,0,200410151330.98,5.8,"intra-plate",48.1,-0.113019102027127,"1990FT"
"FKSH10",140.093,37.1616,334.189338,334.189338,330.86411,"rock",487,401,0.106667,1.266424,1.132257,1.292636,0.78121,0.661594,-1,0.507891,-1,-1,-1,0.21,0,200410151330.98,5.8,"intra-plate",48.1,0.348174497268376,"1990FT"
"HDKH01",142.2296,42.7031,340.022218,340.022218,336.504108,"hard-soil",368,298,0.241778,0.940185,0.909527,0.962236,0.668523,0.373485,-1,0.850736,-1,-1,-1,0.21,0,200410151330.98,5.8,"intra-plate",48.1,0.0290207850230724,"1990FT"
"HDKH02",142.4054,42.7061,341.028841,341.028841,337.517441,"hard-soil",443,382,0.250454,0.876119,0.85877,0.977036,0.679883,0.565131,-1,0.841612,-1,-1,-1,0.21,0,200410151330.98,5.8,"intra-plate",48.1,0.00876494534558164,"1990FT"
"IBUH04",140.665,42.6415,355.130238,355.130238,351.796413,"hard-soil",352,282,0.327003,2.061091,1.92416,2.205302,1.440345,0.390179,-1,0.724244,-1,-1,-1,0.21,0,200410151330.98,5.8,"intra-plate",48.1,0.424356276187687,"1990FT"
"IBUH02",142.1285,42.8714,358.440312,358.440312,355.10088,"rock",541,448,0.104396,0.660035,0.658734,0.852937,0.602346,0.342323,-1,0.392138,-1,-1,-1,0.21,0,200410151330.98,5.8,"intra-plate",48.1,0.225271150264472,"1990FT"
"IBUH01",141.8191,42.8739,359.665314,359.665314,356.343351,"medium-soil",306,248,0.529085,1.804419,1.80422,1.997681,1.317641,0.494185,-1,0.561288,-1,-1,-1,0.21,0,200410151330.98,5.8,"intra-plate",48.1,0.507103735354451,"1990FT"
"TKCH11",142.883,42.8742,364.23476,364.23476,360.934102,"hard-soil",458,424,0.366794,1.161688,1.106555,1.161693,0.805503,0.571954,-1,0.657848,-1,-1,-1,0.21,0,200410151330.98,5.8,"intra-plate",48.1,0.225847446211061,"1990FT"
"KKWH08",142.6562,43.0406,379.626144,379.626144,376.459295,"medium-soil",310,267,0.42087,1.157831,1.000148,1.218943,0.74568,0.242203,-1,0.455257,-1,-1,-1,0.21,0,200410151330.98,5.8,"intra-plate",48.1,0.341807638627324,"1990FT"
"IBRH15",140.3013,36.5566,384.303821,384.303821,381.431537,"rock",450,343,0.164912,0.936383,0.870217,0.937703,0.617678,0.261814,-1,0.299056,-1,-1,-1,0.21,0,200410151330.98,5.8,"intra-plate",48.1,0.463875042994387,"1990FT"
"TKCH04",142.9176,43.1739,397.24334,397.24334,394.209216,"hard-soil",445,380,0.210526,0.841942,0.823932,1.097495,0.774848,0.428549,-1,0.466485,-1,-1,-1,0.21,0,200410151330.98,5.8,"intra-plate",48.1,0.24705368697711,"1990FT"
"KKWH07",142.3409,43.3697,413.737484,413.737484,410.829197,"hard-soil",402,335,0.28549,0.490571,0.48449,0.559968,0.375964,0.198699,-1,0.393877,-1,-1,-1,0.21,0,200410151330.98,5.8,"intra-plate",48.1,0.0899241961112747,"1990FT"
"KKWH14",142.5245,43.3841,416.251904,416.251904,413.357775,"rock",537,436,0.137143,0.421937,0.409076,0.475748,0.304525,0.211528,-1,0.215272,-1,-1,-1,0.21,0,200410151330.98,5.8,"intra-plate",48.1,0.278816455028488,"1990FT"
"TKCH03",143.4317,43.2708,416.847805,416.847805,413.945741,"soft-soil",372,308,0.811363,0.826745,0.822732,0.873881,0.537302,0.356059,-1,0.495693,-1,-1,-1,0.21,0,200410151330.98,5.8,"intra-plate",48.1,0.220045603437058,"1990FT"
"IKRH01",141.5836,43.4087,420.157969,420.157969,417.30587,"hard-soil",404,385,0.332063,0.798633,0.710822,0.823077,0.536156,0.34586,-1,0.36893,-1,-1,-1,0.21,0,200410151330.98,5.8,"intra-plate",48.1,0.284816888935045,"1990FT"
"KSRH05",144.2338,43.2556,437.549108,437.549108,434.772486,"soft-soil",388,318,1.106939,1.182816,1.082174,1.290653,0.847677,0.616615,-1,0.401871,-1,-1,-1,0.21,0,200410151330.98,5.8,"intra-plate",48.1,0.430210427923566,"1990FT"
